[{"name_en":"Cultural Landscape and Archaeological Remains of the Bamiyan Valley","longitude":"67.82525","latitude":"34.84694","states_name_en":"Afghanistan","region_en":"Asia and the Pacific"},{"name_en":"Minaret and Archaeological Remains of Jam","longitude":"64.5158888889","latitude":"34.3964166667","states_name_en":"Afghanistan","region_en":"Asia and the Pacific"},{"name_en":"Historic Centres of Berat and Gjirokastra ","longitude":"20.13333333","latitude":"40.06944444","states_name_en":"Albania","region_en":"Europe and North America"},{"name_en":"Butrint","longitude":"20.02611111","latitude":"39.75111111","states_name_en":"Albania","region_en":"Europe and North America"},{"name_en":"Al Qal'a of Beni Hammad","longitude":"4.78684","latitude":"35.81844","states_name_en":"Algeria","region_en":"Arab States"},{"name_en":"Tassili n'Ajjer","longitude":"9.0","latitude":"25.5","states_name_en":"Algeria","region_en":"Arab States"},{"name_en":"M'Zab Valley","longitude":"3.68333","latitude":"32.48333","states_name_en":"Algeria","region_en":"Arab States"},{"name_en":"Djémila","longitude":"5.73667","latitude":"36.32056","states_name_en":"Algeria","region_en":"Arab States"},{"name_en":"Tipasa","longitude":"2.383333333","latitude":"36.55","states_name_en":"Algeria","region_en":"Arab States"},{"name_en":"Timgad","longitude":"6.4688611111","latitude":"35.4841666667","states_name_en":"Algeria","region_en":"Arab States"},{"name_en":"Kasbah of Algiers","longitude":"3.06028","latitude":"36.78333","states_name_en":"Algeria","region_en":"Arab States"},{"name_en":"Madriu-Perafita-Claror Valley","longitude":"1.595555556","latitude":"42.49472222","states_name_en":"Andorra","region_en":"Europe and North America"},{"name_en":"Mbanza Kongo, Vestiges of the Capital of the former Kingdom of Kongo","longitude":"14.2497222222","latitude":"-6.2688888889","states_name_en":"Angola","region_en":"Africa"},{"name_en":"Antigua Naval Dockyard and Related Archaeological Sites","longitude":"-61.7616666667","latitude":"17.0069444444","states_name_en":"Antigua and Barbuda","region_en":"Latin America and the Caribbean"},{"name_en":"Los Glaciares National Park","longitude":"-73.24944","latitude":"-50.0","states_name_en":"Argentina","region_en":"Latin America and the Caribbean"},{"name_en":"Iguazu National Park","longitude":"-54.13333333","latitude":"-25.51805556","states_name_en":"Argentina","region_en":"Latin America and the Caribbean"},{"name_en":"Cueva de las Manos, Río Pinturas","longitude":"-70.66666667","latitude":"-47.15","states_name_en":"Argentina","region_en":"Latin America and the Caribbean"},{"name_en":"Península Valdés","longitude":"-64.0","latitude":"-42.5","states_name_en":"Argentina","region_en":"Latin America and the Caribbean"},{"name_en":"Ischigualasto / Talampaya Natural Parks","longitude":"-68.0","latitude":"-30.0","states_name_en":"Argentina","region_en":"Latin America and the Caribbean"},{"name_en":"Jesuit Block and Estancias of Córdoba","longitude":"-64.19111","latitude":"-31.42056","states_name_en":"Argentina","region_en":"Latin America and the Caribbean"},{"name_en":"Quebrada de Humahuaca","longitude":"-65.34886111","latitude":"-23.19986111","states_name_en":"Argentina","region_en":"Latin America and the Caribbean"},{"name_en":"Los Alerces National Park","longitude":"-71.8728","latitude":"-42.8528","states_name_en":"Argentina","region_en":"Latin America and the Caribbean"},{"name_en":"Monasteries of Haghpat and Sanahin","longitude":"44.71028","latitude":"41.095","states_name_en":"Armenia","region_en":"Europe and North America"},{"name_en":"Monastery of Geghard and the Upper Azat Valley","longitude":"44.79667","latitude":"40.15889","states_name_en":"Armenia","region_en":"Europe and North America"},{"name_en":"Cathedral and Churches of Echmiatsin and the Archaeological Site of Zvartnots","longitude":"44.29514","latitude":"40.15931","states_name_en":"Armenia","region_en":"Europe and North America"},{"name_en":"Kakadu National Park","longitude":"132.8333333","latitude":"-12.83333333","states_name_en":"Australia","region_en":"Asia and the Pacific"},{"name_en":"Great Barrier Reef","longitude":"147.7","latitude":"-18.28611111","states_name_en":"Australia","region_en":"Asia and the Pacific"},{"name_en":"Sydney Opera House","longitude":"151.2152777777","latitude":"-33.8566666667","states_name_en":"Australia","region_en":"Asia and the Pacific"},{"name_en":"Willandra Lakes Region","longitude":"143.0","latitude":"-34.0","states_name_en":"Australia","region_en":"Asia and the Pacific"},{"name_en":"Tasmanian Wilderness","longitude":"145.4166667","latitude":"-41.58333333","states_name_en":"Australia","region_en":"Asia and the Pacific"},{"name_en":"Lord Howe Island Group","longitude":"159.0883333","latitude":"-31.56555556","states_name_en":"Australia","region_en":"Asia and the Pacific"},{"name_en":"Gondwana Rainforests of Australia","longitude":"150.05","latitude":"-28.25","states_name_en":"Australia","region_en":"Asia and the Pacific"},{"name_en":"Ulu<U>r</U>u-Kata Tju<U>t</U>a National Park","longitude":"131.0","latitude":"-25.33333333","states_name_en":"Australia","region_en":"Asia and the Pacific"},{"name_en":"Wet Tropics of Queensland","longitude":"144.9666667","latitude":"-15.65","states_name_en":"Australia","region_en":"Asia and the Pacific"},{"name_en":"Heard and McDonald Islands","longitude":"73.5","latitude":"-53.1","states_name_en":"Australia","region_en":"Asia and the Pacific"},{"name_en":"Shark Bay, Western Australia","longitude":"113.4361111","latitude":"-25.48611111","states_name_en":"Australia","region_en":"Asia and the Pacific"},{"name_en":"Macquarie Island","longitude":"158.8955556","latitude":"-54.59472222","states_name_en":"Australia","region_en":"Asia and the Pacific"},{"name_en":"Fraser Island","longitude":"153.1333333","latitude":"-25.21666667","states_name_en":"Australia","region_en":"Asia and the Pacific"},{"name_en":"Australian Fossil Mammal Sites (Riversleigh / Naracoorte)","longitude":"138.7166667","latitude":"-19.08333333","states_name_en":"Australia","region_en":"Asia and the Pacific"},{"name_en":"Greater Blue Mountains Area","longitude":"150.0","latitude":"-33.7","states_name_en":"Australia","region_en":"Asia and the Pacific"},{"name_en":"Purnululu National Park","longitude":"128.5","latitude":"-17.5","states_name_en":"Australia","region_en":"Asia and the Pacific"},{"name_en":"Royal Exhibition Building and Carlton Gardens","longitude":"144.9702778","latitude":"-37.80611111","states_name_en":"Australia","region_en":"Asia and the Pacific"},{"name_en":"Australian Convict Sites","longitude":"150.9944444444","latitude":"-33.3783333333","states_name_en":"Australia","region_en":"Asia and the Pacific"},{"name_en":"Ningaloo Coast","longitude":"113.8102777778","latitude":"-22.5625","states_name_en":"Australia","region_en":"Asia and the Pacific"},{"name_en":"Historic Centre of the City of Salzburg","longitude":"13.04333333","latitude":"47.80055556","states_name_en":"Austria","region_en":"Europe and North America"},{"name_en":"Semmering Railway","longitude":"15.82797222","latitude":"47.64877778","states_name_en":"Austria","region_en":"Europe and North America"},{"name_en":"Palace and Gardens of Schönbrunn","longitude":"16.31333333","latitude":"48.18666667","states_name_en":"Austria","region_en":"Europe and North America"},{"name_en":"Hallstatt-Dachstein / Salzkammergut Cultural Landscape","longitude":"13.64638889","latitude":"47.55944444","states_name_en":"Austria","region_en":"Europe and North America"},{"name_en":"City of Graz – Historic Centre and Schloss Eggenberg","longitude":"15.3916666667","latitude":"47.0741666667","states_name_en":"Austria","region_en":"Europe and North America"},{"name_en":"Wachau Cultural Landscape","longitude":"15.43416667","latitude":"48.36444444","states_name_en":"Austria","region_en":"Europe and North America"},{"name_en":"Historic Centre of Vienna","longitude":"16.38333333","latitude":"48.21666667","states_name_en":"Austria","region_en":"Europe and North America"},{"name_en":"Walled City of Baku with the Shirvanshah's Palace and Maiden Tower","longitude":"49.83333333","latitude":"40.36666667","states_name_en":"Azerbaijan","region_en":"Europe and North America"},{"name_en":"Gobustan Rock Art Cultural Landscape","longitude":"49.375","latitude":"40.125","states_name_en":"Azerbaijan","region_en":"Europe and North America"},{"name_en":"Qal’at al-Bahrain – Ancient Harbour and Capital of Dilmun","longitude":"50.5272222222","latitude":"26.23306","states_name_en":"Bahrain","region_en":"Arab States"},{"name_en":"Pearling, Testimony of an Island Economy","longitude":"50.61351","latitude":"26.24128","states_name_en":"Bahrain","region_en":"Arab States"},{"name_en":"Historic Mosque City of Bagerhat","longitude":"89.8","latitude":"22.66667","states_name_en":"Bangladesh","region_en":"Asia and the Pacific"},{"name_en":"Ruins of the Buddhist Vihara at Paharpur","longitude":"88.98333333","latitude":"25.03333333","states_name_en":"Bangladesh","region_en":"Asia and the Pacific"},{"name_en":"The Sundarbans","longitude":"89.18333","latitude":"21.95","states_name_en":"Bangladesh","region_en":"Asia and the Pacific"},{"name_en":"Historic Bridgetown and its Garrison","longitude":"-59.6138888889","latitude":"13.0966666667","states_name_en":"Barbados","region_en":"Latin America and the Caribbean"},{"name_en":"Mir Castle Complex","longitude":"26.47272222","latitude":"53.45108333","states_name_en":"Belarus","region_en":"Europe and North America"},{"name_en":"Architectural, Residential and Cultural Complex of the Radziwill Family at Nesvizh","longitude":"26.69139","latitude":"53.22278","states_name_en":"Belarus","region_en":"Europe and North America"},{"name_en":"Flemish Béguinages","longitude":"4.47375","latitude":"51.03097222","states_name_en":"Belgium","region_en":"Europe and North America"},{"name_en":"The Four Lifts on the Canal du Centre and their Environs, La Louvière and Le Roeulx (Hainaut)","longitude":"4.13722","latitude":"50.48111","states_name_en":"Belgium","region_en":"Europe and North America"},{"name_en":"La Grand-Place, Brussels","longitude":"4.35242","latitude":"50.84668","states_name_en":"Belgium","region_en":"Europe and North America"},{"name_en":"Historic Centre of Brugge","longitude":"3.22527","latitude":"51.20891","states_name_en":"Belgium","region_en":"Europe and North America"},{"name_en":"Major Town Houses of the Architect Victor Horta (Brussels)","longitude":"4.36223","latitude":"50.82806","states_name_en":"Belgium","region_en":"Europe and North America"},{"name_en":"Neolithic Flint Mines at Spiennes (Mons)","longitude":"3.97879","latitude":"50.43077","states_name_en":"Belgium","region_en":"Europe and North America"},{"name_en":"Notre-Dame Cathedral in Tournai","longitude":"3.38926","latitude":"50.60603","states_name_en":"Belgium","region_en":"Europe and North America"},{"name_en":"Plantin-Moretus House-Workshops-Museum Complex","longitude":"4.39778","latitude":"51.21833","states_name_en":"Belgium","region_en":"Europe and North America"},{"name_en":"Stoclet House","longitude":"4.4161111111","latitude":"50.835","states_name_en":"Belgium","region_en":"Europe and North America"},{"name_en":"Major Mining Sites of Wallonia","longitude":"3.8383333333","latitude":"50.4352777778","states_name_en":"Belgium","region_en":"Europe and North America"},{"name_en":"Belize Barrier Reef Reserve System","longitude":"-87.05833333","latitude":"16.75","states_name_en":"Belize","region_en":"Latin America and the Caribbean"},{"name_en":"Royal Palaces of Abomey","longitude":"1.983333333","latitude":"7.183333333","states_name_en":"Benin","region_en":"Africa"},{"name_en":"City of Potosí","longitude":"-65.75306","latitude":"-19.58361","states_name_en":"Bolivia (Plurinational State of)","region_en":"Latin America and the Caribbean"},{"name_en":"Jesuit Missions of the Chiquitos","longitude":"-60.5","latitude":"-16.0","states_name_en":"Bolivia (Plurinational State of)","region_en":"Latin America and the Caribbean"},{"name_en":"Historic City of Sucre","longitude":"-65.25917","latitude":"-19.04306","states_name_en":"Bolivia (Plurinational State of)","region_en":"Latin America and the Caribbean"},{"name_en":"Tiwanaku: Spiritual and Political Centre of the Tiwanaku Culture","longitude":"-68.67778","latitude":"-16.55833333","states_name_en":"Bolivia (Plurinational State of)","region_en":"Latin America and the Caribbean"},{"name_en":"Fuerte de Samaipata","longitude":"-63.81666667","latitude":"-18.16666667","states_name_en":"Bolivia (Plurinational State of)","region_en":"Latin America and the Caribbean"},{"name_en":"Noel Kempff Mercado National Park","longitude":"-60.86667","latitude":"-14.26667","states_name_en":"Bolivia (Plurinational State of)","region_en":"Latin America and the Caribbean"},{"name_en":"Old Bridge Area of the Old City of Mostar","longitude":"17.81092","latitude":"43.34812","states_name_en":"Bosnia and Herzegovina","region_en":"Europe and North America"},{"name_en":"Mehmed Paša Sokolović Bridge in Višegrad","longitude":"19.288025","latitude":"43.7814444444","states_name_en":"Bosnia and Herzegovina","region_en":"Europe and North America"},{"name_en":"Tsodilo","longitude":"21.73333333","latitude":"-18.75","states_name_en":"Botswana","region_en":"Africa"},{"name_en":"Okavango Delta","longitude":"22.9","latitude":"-19.2833333333","states_name_en":"Botswana","region_en":"Africa"},{"name_en":"Historic Town of Ouro Preto","longitude":"-43.50555556","latitude":"-20.38888889","states_name_en":"Brazil","region_en":"Latin America and the Caribbean"},{"name_en":"Historic Centre of the Town of Olinda","longitude":"-34.845","latitude":"-8.013333333","states_name_en":"Brazil","region_en":"Latin America and the Caribbean"},{"name_en":"Historic Centre of Salvador de Bahia","longitude":"-38.5","latitude":"-12.96666667","states_name_en":"Brazil","region_en":"Latin America and the Caribbean"},{"name_en":"Sanctuary of Bom Jesus do Congonhas","longitude":"-43.85777778","latitude":"-20.49972222","states_name_en":"Brazil","region_en":"Latin America and the Caribbean"},{"name_en":"Iguaçu National Park","longitude":"-54.43333","latitude":"-25.68333","states_name_en":"Brazil","region_en":"Latin America and the Caribbean"},{"name_en":"Brasilia","longitude":"-47.9","latitude":"-15.78333","states_name_en":"Brazil","region_en":"Latin America and the Caribbean"},{"name_en":"Serra da Capivara National Park","longitude":"-42.33333333","latitude":"-8.416666667","states_name_en":"Brazil","region_en":"Latin America and the Caribbean"},{"name_en":"Historic Centre of São Luís","longitude":"-44.3025","latitude":"-2.514166667","states_name_en":"Brazil","region_en":"Latin America and the Caribbean"},{"name_en":"Historic Centre of the Town of Diamantina","longitude":"-43.6","latitude":"-18.23333333","states_name_en":"Brazil","region_en":"Latin America and the Caribbean"},{"name_en":"Discovery Coast Atlantic Forest Reserves","longitude":"-39.25","latitude":"-16.5","states_name_en":"Brazil","region_en":"Latin America and the Caribbean"},{"name_en":"Atlantic Forest South-East Reserves","longitude":"-48.0","latitude":"-24.16667","states_name_en":"Brazil","region_en":"Latin America and the Caribbean"},{"name_en":"Historic Centre of the Town of Goiás","longitude":"-50.13336","latitude":"-15.93328","states_name_en":"Brazil","region_en":"Latin America and the Caribbean"},{"name_en":"Central Amazon Conservation Complex","longitude":"-62.00833333","latitude":"-2.333333333","states_name_en":"Brazil","region_en":"Latin America and the Caribbean"},{"name_en":"Pantanal Conservation Area","longitude":"-57.38333","latitude":"-17.71667","states_name_en":"Brazil","region_en":"Latin America and the Caribbean"},{"name_en":"Brazilian Atlantic Islands: Fernando de Noronha and Atol das Rocas Reserves","longitude":"-32.42511111","latitude":"-3.857944444","states_name_en":"Brazil","region_en":"Latin America and the Caribbean"},{"name_en":"Cerrado Protected Areas: Chapada dos Veadeiros and Emas National Parks","longitude":"-47.68461111","latitude":"-14.00569444","states_name_en":"Brazil","region_en":"Latin America and the Caribbean"},{"name_en":"Rio de Janeiro: Carioca Landscapes between the Mountain and the Sea","longitude":"-43.2913888889","latitude":"-22.9477777778","states_name_en":"Brazil","region_en":"Latin America and the Caribbean"},{"name_en":"São Francisco Square in the Town of São Cristóvão","longitude":"-37.21","latitude":"-11.0161111111","states_name_en":"Brazil","region_en":"Latin America and the Caribbean"},{"name_en":"Pampulha Modern Ensemble","longitude":"-43.9736111111","latitude":"-19.8519444444","states_name_en":"Brazil","region_en":"Latin America and the Caribbean"},{"name_en":"Valongo Wharf Archaeological Site","longitude":"-43.1873944444","latitude":"-22.8971111111","states_name_en":"Brazil","region_en":"Latin America and the Caribbean"},{"name_en":"Boyana Church","longitude":"23.26666667","latitude":"42.65","states_name_en":"Bulgaria","region_en":"Europe and North America"},{"name_en":"Madara Rider","longitude":"27.15","latitude":"43.3","states_name_en":"Bulgaria","region_en":"Europe and North America"},{"name_en":"Thracian Tomb of Kazanlak","longitude":"25.4","latitude":"42.61666667","states_name_en":"Bulgaria","region_en":"Europe and North America"},{"name_en":"Rock-Hewn Churches of Ivanovo","longitude":"25.96666667","latitude":"43.71666667","states_name_en":"Bulgaria","region_en":"Europe and North America"},{"name_en":"Rila Monastery","longitude":"23.4","latitude":"42.11666667","states_name_en":"Bulgaria","region_en":"Europe and North America"},{"name_en":"Ancient City of Nessebar","longitude":"27.73","latitude":"42.65611","states_name_en":"Bulgaria","region_en":"Europe and North America"},{"name_en":"Srebarna Nature Reserve","longitude":"27.07806","latitude":"44.11444","states_name_en":"Bulgaria","region_en":"Europe and North America"},{"name_en":"Pirin National Park","longitude":"23.4304722222","latitude":"41.7427222222","states_name_en":"Bulgaria","region_en":"Europe and North America"},{"name_en":"Thracian Tomb of Sveshtari","longitude":"26.66667","latitude":"43.66667","states_name_en":"Bulgaria","region_en":"Europe and North America"},{"name_en":"Ruins of Loropéni","longitude":"-3.5833333333","latitude":"10.25","states_name_en":"Burkina Faso","region_en":"Africa"},{"name_en":"Cidade Velha, Historic Centre of Ribeira Grande","longitude":"-23.6051944444","latitude":"14.9151388889","states_name_en":"Cabo Verde","region_en":"Africa"},{"name_en":"Angkor","longitude":"103.8333333","latitude":"13.43333333","states_name_en":"Cambodia","region_en":"Asia and the Pacific"},{"name_en":"Temple of Preah Vihear","longitude":"104.6838888889","latitude":"14.3883333333","states_name_en":"Cambodia","region_en":"Asia and the Pacific"},{"name_en":"Temple Zone of Sambor Prei Kuk, Archaeological Site of Ancient Ishanapura","longitude":"105.0430555556","latitude":"12.8725","states_name_en":"Cambodia","region_en":"Asia and the Pacific"},{"name_en":"Dja Faunal Reserve","longitude":"13.0","latitude":"3.0","states_name_en":"Cameroon","region_en":"Africa"},{"name_en":"L’Anse aux Meadows National Historic Site","longitude":"-55.61666667","latitude":"51.46666667","states_name_en":"Canada","region_en":"Europe and North America"},{"name_en":"Nahanni National Park","longitude":"-125.5894444","latitude":"61.54722222","states_name_en":"Canada","region_en":"Europe and North America"},{"name_en":"Dinosaur Provincial Park","longitude":"-111.4922222","latitude":"50.76777778","states_name_en":"Canada","region_en":"Europe and North America"},{"name_en":"S<U>G</U>ang Gwaay","longitude":"-131.2202778","latitude":"52.095","states_name_en":"Canada","region_en":"Europe and North America"},{"name_en":"Head-Smashed-In Buffalo Jump","longitude":"-113.6238889","latitude":"49.74944444","states_name_en":"Canada","region_en":"Europe and North America"},{"name_en":"Wood Buffalo National Park","longitude":"-112.2933333","latitude":"59.35833333","states_name_en":"Canada","region_en":"Europe and North America"},{"name_en":"Historic District of Old Québec","longitude":"-71.21055556","latitude":"46.80944444","states_name_en":"Canada","region_en":"Europe and North America"},{"name_en":"Canadian Rocky Mountain Parks","longitude":"-116.4797222","latitude":"51.42472222","states_name_en":"Canada","region_en":"Europe and North America"},{"name_en":"Gros Morne National Park","longitude":"-57.53138889","latitude":"49.6125","states_name_en":"Canada","region_en":"Europe and North America"},{"name_en":"Miguasha National Park","longitude":"-66.35305556","latitude":"48.105","states_name_en":"Canada","region_en":"Europe and North America"},{"name_en":"Old Town Lunenburg","longitude":"-64.30916667","latitude":"44.37611111","states_name_en":"Canada","region_en":"Europe and North America"},{"name_en":"Rideau Canal","longitude":"-75.765125","latitude":"44.9943861111","states_name_en":"Canada","region_en":"Europe and North America"},{"name_en":"Joggins Fossil Cliffs","longitude":"-64.4358333333","latitude":"45.7097222222","states_name_en":"Canada","region_en":"Europe and North America"},{"name_en":"Landscape of Grand Pré","longitude":"-64.3072222222","latitude":"45.1183333333","states_name_en":"Canada","region_en":"Europe and North America"},{"name_en":"Red Bay Basque Whaling Station","longitude":"-56.4295222222","latitude":"51.726925","states_name_en":"Canada","region_en":"Europe and North America"},{"name_en":"Pimachiowin Aki","longitude":"-95.4112777778","latitude":"51.8264166667","states_name_en":"Canada","region_en":"Europe and North America"},{"name_en":"Mistaken Point","longitude":"-53.2111111111","latitude":"46.635","states_name_en":"Canada","region_en":"Europe and North America"},{"name_en":"Manovo-Gounda St Floris National Park","longitude":"21.5","latitude":"9.0","states_name_en":"Central African Republic","region_en":"Africa"},{"name_en":"Lakes of Ounianga","longitude":"20.5055555556","latitude":"19.055","states_name_en":"Chad","region_en":"Africa"},{"name_en":"Ennedi Massif: Natural and Cultural Landscape","longitude":"21.8627777778","latitude":"17.0416666667","states_name_en":"Chad","region_en":"Africa"},{"name_en":"Rapa Nui National Park","longitude":"-109.45","latitude":"-27.15","states_name_en":"Chile","region_en":"Latin America and the Caribbean"},{"name_en":"Historic Quarter of the Seaport City of Valparaíso","longitude":"-71.628","latitude":"-33.04063889","states_name_en":"Chile","region_en":"Latin America and the Caribbean"},{"name_en":"Churches of Chiloé","longitude":"-73.76666667","latitude":"-42.5","states_name_en":"Chile","region_en":"Latin America and the Caribbean"},{"name_en":"Humberstone and Santa Laura Saltpeter Works","longitude":"-69.79406","latitude":"-20.20582","states_name_en":"Chile","region_en":"Latin America and the Caribbean"},{"name_en":"Sewell Mining Town","longitude":"-70.3827777777","latitude":"-34.0844444444","states_name_en":"Chile","region_en":"Latin America and the Caribbean"},{"name_en":"Mount Taishan","longitude":"117.1","latitude":"36.26667","states_name_en":"China","region_en":"Asia and the Pacific"},{"name_en":"The Great Wall","longitude":"116.08333","latitude":"40.41667","states_name_en":"China","region_en":"Asia and the Pacific"},{"name_en":"Imperial Palaces of the Ming and Qing Dynasties in Beijing and Shenyang","longitude":"123.4469444","latitude":"41.79416667","states_name_en":"China","region_en":"Asia and the Pacific"},{"name_en":"Mogao Caves","longitude":"94.81667","latitude":"40.13333","states_name_en":"China","region_en":"Asia and the Pacific"},{"name_en":"Mausoleum of the First Qin Emperor","longitude":"109.1","latitude":"34.38333333","states_name_en":"China","region_en":"Asia and the Pacific"},{"name_en":"Peking Man Site at Zhoukoudian","longitude":"115.9166667","latitude":"39.73333333","states_name_en":"China","region_en":"Asia and the Pacific"},{"name_en":"Mount Huangshan","longitude":"118.18333","latitude":"30.16667","states_name_en":"China","region_en":"Asia and the Pacific"},{"name_en":"Jiuzhaigou Valley Scenic and Historic Interest Area","longitude":"103.91667","latitude":"33.08333","states_name_en":"China","region_en":"Asia and the Pacific"},{"name_en":"Huanglong Scenic and Historic Interest Area","longitude":"103.82222","latitude":"32.75417","states_name_en":"China","region_en":"Asia and the Pacific"},{"name_en":"Wulingyuan Scenic and Historic Interest Area","longitude":"110.5","latitude":"29.33333","states_name_en":"China","region_en":"Asia and the Pacific"},{"name_en":"Mountain Resort and its Outlying Temples, Chengde","longitude":"117.93833","latitude":"40.98694","states_name_en":"China","region_en":"Asia and the Pacific"},{"name_en":"Temple and Cemetery of Confucius and the Kong Family Mansion in Qufu","longitude":"116.975","latitude":"35.61167","states_name_en":"China","region_en":"Asia and the Pacific"},{"name_en":"Ancient Building Complex in the Wudang Mountains","longitude":"111.0","latitude":"32.46667","states_name_en":"China","region_en":"Asia and the Pacific"},{"name_en":"Historic Ensemble of the Potala Palace, Lhasa","longitude":"91.11717","latitude":"29.65792","states_name_en":"China","region_en":"Asia and the Pacific"},{"name_en":"Lushan National Park","longitude":"115.8666667","latitude":"29.43333333","states_name_en":"China","region_en":"Asia and the Pacific"},{"name_en":"Mount Emei Scenic Area, including Leshan Giant Buddha Scenic Area","longitude":"103.76925","latitude":"29.5449","states_name_en":"China","region_en":"Asia and the Pacific"},{"name_en":"Old Town of Lijiang","longitude":"100.23333","latitude":"26.86667","states_name_en":"China","region_en":"Asia and the Pacific"},{"name_en":"Ancient City of Ping Yao","longitude":"112.15444","latitude":"37.20139","states_name_en":"China","region_en":"Asia and the Pacific"},{"name_en":"Classical Gardens of Suzhou","longitude":"120.45","latitude":"31.31666667","states_name_en":"China","region_en":"Asia and the Pacific"},{"name_en":"Summer Palace, an Imperial Garden in Beijing","longitude":"116.1411111","latitude":"39.91055556","states_name_en":"China","region_en":"Asia and the Pacific"},{"name_en":"Temple of Heaven: an Imperial Sacrificial Altar in Beijing","longitude":"116.4447222","latitude":"39.84555556","states_name_en":"China","region_en":"Asia and the Pacific"},{"name_en":"Mount Wuyi","longitude":"117.68333","latitude":"27.71667","states_name_en":"China","region_en":"Asia and the Pacific"},{"name_en":"Dazu Rock Carvings","longitude":"105.705","latitude":"29.70111","states_name_en":"China","region_en":"Asia and the Pacific"},{"name_en":"Mount Qingcheng and the Dujiangyan Irrigation System","longitude":"103.60528","latitude":"31.00167","states_name_en":"China","region_en":"Asia and the Pacific"},{"name_en":"Ancient Villages in Southern Anhui – Xidi and Hongcun","longitude":"117.9875","latitude":"29.90444444","states_name_en":"China","region_en":"Asia and the Pacific"},{"name_en":"Longmen Grottoes","longitude":"112.4666667","latitude":"34.46666667","states_name_en":"China","region_en":"Asia and the Pacific"},{"name_en":"Imperial Tombs of the Ming and Qing Dynasties","longitude":"124.7938889","latitude":"41.70722222","states_name_en":"China","region_en":"Asia and the Pacific"},{"name_en":"Yungang Grottoes","longitude":"113.12222","latitude":"40.10972","states_name_en":"China","region_en":"Asia and the Pacific"},{"name_en":"Three Parallel Rivers of Yunnan Protected Areas","longitude":"98.40638889","latitude":"27.895","states_name_en":"China","region_en":"Asia and the Pacific"},{"name_en":"Historic Centre of Macao","longitude":"113.5364611111","latitude":"22.1912919444","states_name_en":"China","region_en":"Asia and the Pacific"},{"name_en":"Cultural Landscape of Honghe Hani Rice Terraces ","longitude":"102.7799805556","latitude":"23.0932777778","states_name_en":"China","region_en":"Asia and the Pacific"},{"name_en":"Kaiping Diaolou and Villages","longitude":"112.5658611111","latitude":"22.2855194444","states_name_en":"China","region_en":"Asia and the Pacific"},{"name_en":"Fujian <em>Tulou</em>","longitude":"117.6858333333","latitude":"25.0230555556","states_name_en":"China","region_en":"Asia and the Pacific"},{"name_en":"Yin Xu","longitude":"114.3138888888","latitude":"36.1266666666","states_name_en":"China","region_en":"Asia and the Pacific"},{"name_en":"Capital Cities and Tombs of the Ancient Koguryo Kingdom","longitude":"126.1872222","latitude":"41.15694444","states_name_en":"China","region_en":"Asia and the Pacific"},{"name_en":"Sichuan Giant Panda Sanctuaries - Wolong, Mt Siguniang and Jiajin Mountains ","longitude":"103.0","latitude":"30.8333333333","states_name_en":"China","region_en":"Asia and the Pacific"},{"name_en":"South China Karst","longitude":"110.3544444444","latitude":"24.9233333333","states_name_en":"China","region_en":"Asia and the Pacific"},{"name_en":"Mount Wutai","longitude":"113.5633333333","latitude":"39.0305555556","states_name_en":"China","region_en":"Asia and the Pacific"},{"name_en":"Mount Sanqingshan National Park","longitude":"118.0644444444","latitude":"28.9158333333","states_name_en":"China","region_en":"Asia and the Pacific"},{"name_en":"Historic Monuments of Dengfeng in “The Centre of Heaven and Earth”","longitude":"113.0677194444","latitude":"34.4587472222","states_name_en":"China","region_en":"Asia and the Pacific"},{"name_en":"West Lake Cultural Landscape of Hangzhou","longitude":"120.1408333333","latitude":"30.2375","states_name_en":"China","region_en":"Asia and the Pacific"},{"name_en":"China Danxia","longitude":"106.0425","latitude":"28.4219444444","states_name_en":"China","region_en":"Asia and the Pacific"},{"name_en":"Chengjiang Fossil Site","longitude":"102.9772222222","latitude":"24.6688888889","states_name_en":"China","region_en":"Asia and the Pacific"},{"name_en":"Site of Xanadu","longitude":"116.1851277778","latitude":"42.358","states_name_en":"China","region_en":"Asia and the Pacific"},{"name_en":"Xinjiang Tianshan","longitude":"80.3541666667","latitude":"41.9683333333","states_name_en":"China","region_en":"Asia and the Pacific"},{"name_en":"The Grand Canal","longitude":"112.4683333333","latitude":"34.6938888889","states_name_en":"China","region_en":"Asia and the Pacific"},{"name_en":"Tusi Sites","longitude":"109.9669444444","latitude":"28.9986111111","states_name_en":"China","region_en":"Asia and the Pacific"},{"name_en":"Zuojiang Huashan Rock Art Cultural Landscape","longitude":"107.0230555556","latitude":"22.2555555556","states_name_en":"China","region_en":"Asia and the Pacific"},{"name_en":"Hubei Shennongjia","longitude":"110.2438888889","latitude":"31.4697222222","states_name_en":"China","region_en":"Asia and the Pacific"},{"name_en":"Qinghai Hoh Xil","longitude":"92.4391666667","latitude":"35.3802777778","states_name_en":"China","region_en":"Asia and the Pacific"},{"name_en":"Kulangsu, a Historic International Settlement","longitude":"118.0619444444","latitude":"24.4475","states_name_en":"China","region_en":"Asia and the Pacific"},{"name_en":"Fanjingshan","longitude":"108.68","latitude":"27.8955555556","states_name_en":"China","region_en":"Asia and the Pacific"},{"name_en":"Port, Fortresses and Group of Monuments, Cartagena","longitude":"-75.53333333","latitude":"10.41666667","states_name_en":"Colombia","region_en":"Latin America and the Caribbean"},{"name_en":"Los Katíos National Park","longitude":"-77.0","latitude":"7.666666667","states_name_en":"Colombia","region_en":"Latin America and the Caribbean"},{"name_en":"Historic Centre of Santa Cruz de Mompox","longitude":"-74.43333333","latitude":"9.233333333","states_name_en":"Colombia","region_en":"Latin America and the Caribbean"},{"name_en":"National Archeological Park of Tierradentro","longitude":"-76.03333333","latitude":"2.583333333","states_name_en":"Colombia","region_en":"Latin America and the Caribbean"},{"name_en":"San Agustín Archaeological Park","longitude":"-76.23333333","latitude":"1.916666667","states_name_en":"Colombia","region_en":"Latin America and the Caribbean"},{"name_en":"Coffee Cultural Landscape of Colombia","longitude":"-75.6816666667","latitude":"5.4716666667","states_name_en":"Colombia","region_en":"Latin America and the Caribbean"},{"name_en":"Chiribiquete National Park – “The Maloca of the Jaguar”","longitude":"-72.7972222222","latitude":"0.5252777778","states_name_en":"Colombia","region_en":"Latin America and the Caribbean"},{"name_en":"Malpelo Fauna and Flora Sanctuary","longitude":"-81.6166666666","latitude":"3.9666666667","states_name_en":"Colombia","region_en":"Latin America and the Caribbean"},{"name_en":"Cocos Island National Park","longitude":"-87.06666667","latitude":"5.533333333","states_name_en":"Costa Rica","region_en":"Latin America and the Caribbean"},{"name_en":"Area de Conservación Guanacaste","longitude":"-85.61666667","latitude":"10.85","states_name_en":"Costa Rica","region_en":"Latin America and the Caribbean"},{"name_en":"Precolumbian Chiefdom Settlements with Stone Spheres of the Diquís","longitude":"-83.4775","latitude":"8.9113888889","states_name_en":"Costa Rica","region_en":"Latin America and the Caribbean"},{"name_en":"Taï National Park","longitude":"-7.66667","latitude":"5.75","states_name_en":"Côte d'Ivoire","region_en":"Africa"},{"name_en":"Comoé National Park","longitude":"-4.0","latitude":"9.0","states_name_en":"Côte d'Ivoire","region_en":"Africa"},{"name_en":"Historic Town of Grand-Bassam","longitude":"3.7363888889","latitude":"5.1958333333","states_name_en":"Côte d'Ivoire","region_en":"Africa"},{"name_en":"Old City of Dubrovnik","longitude":"18.09139","latitude":"42.65056","states_name_en":"Croatia","region_en":"Europe and North America"},{"name_en":"Historical Complex of Split with the Palace of Diocletian","longitude":"16.44333","latitude":"43.50944","states_name_en":"Croatia","region_en":"Europe and North America"},{"name_en":"Plitvice Lakes National Park","longitude":"15.61444","latitude":"44.87778","states_name_en":"Croatia","region_en":"Europe and North America"},{"name_en":"Episcopal Complex of the Euphrasian Basilica in the Historic Centre of Poreč","longitude":"13.59444","latitude":"45.22917","states_name_en":"Croatia","region_en":"Europe and North America"},{"name_en":"Historic City of Trogir","longitude":"16.25167","latitude":"43.5125","states_name_en":"Croatia","region_en":"Europe and North America"},{"name_en":"The Cathedral of St James in Šibenik","longitude":"15.89038","latitude":"43.73629","states_name_en":"Croatia","region_en":"Europe and North America"},{"name_en":"Stari Grad Plain","longitude":"16.6386111111","latitude":"43.1816666667","states_name_en":"Croatia","region_en":"Europe and North America"},{"name_en":"Old Havana and its Fortification System","longitude":"-82.35","latitude":"23.13333333","states_name_en":"Cuba","region_en":"Latin America and the Caribbean"},{"name_en":"Trinidad and the Valley de los Ingenios","longitude":"-79.98444444","latitude":"21.80305556","states_name_en":"Cuba","region_en":"Latin America and the Caribbean"},{"name_en":"Alejandro de Humboldt National Park","longitude":"-75.0","latitude":"20.45","states_name_en":"Cuba","region_en":"Latin America and the Caribbean"},{"name_en":"Viñales Valley","longitude":"-83.71667","latitude":"22.61667","states_name_en":"Cuba","region_en":"Latin America and the Caribbean"},{"name_en":"San Pedro de la Roca Castle, Santiago de Cuba","longitude":"-75.87083333","latitude":"19.96666667","states_name_en":"Cuba","region_en":"Latin America and the Caribbean"},{"name_en":"Desembarco del Granma National Park","longitude":"-77.63333","latitude":"19.88333","states_name_en":"Cuba","region_en":"Latin America and the Caribbean"},{"name_en":"Archaeological Landscape of the First Coffee Plantations in the South-East of Cuba","longitude":"-75.39138889","latitude":"20.03","states_name_en":"Cuba","region_en":"Latin America and the Caribbean"},{"name_en":"Urban Historic Centre of Cienfuegos ","longitude":"-80.45278","latitude":"22.14722","states_name_en":"Cuba","region_en":"Latin America and the Caribbean"},{"name_en":"Historic Centre of Camagüey","longitude":"-77.9186111111","latitude":"21.3786111111","states_name_en":"Cuba","region_en":"Latin America and the Caribbean"},{"name_en":"Paphos","longitude":"32.40556","latitude":"34.75833","states_name_en":"Cyprus","region_en":"Europe and North America"},{"name_en":"Painted Churches in the Troodos Region","longitude":"33.09583333","latitude":"34.92027778","states_name_en":"Cyprus","region_en":"Europe and North America"},{"name_en":"Choirokoitia","longitude":"33.34333","latitude":"34.79833","states_name_en":"Cyprus","region_en":"Europe and North America"},{"name_en":"Historic Centre of Prague","longitude":"14.41944","latitude":"50.08972","states_name_en":"Czechia","region_en":"Europe and North America"},{"name_en":"Historic Centre of Český Krumlov","longitude":"14.31666667","latitude":"48.81666667","states_name_en":"Czechia","region_en":"Europe and North America"},{"name_en":"Historic Centre of Telč","longitude":"15.45","latitude":"49.18333","states_name_en":"Czechia","region_en":"Europe and North America"},{"name_en":"Pilgrimage Church of St John of Nepomuk at Zelená Hora","longitude":"15.9420583333","latitude":"49.5802","states_name_en":"Czechia","region_en":"Europe and North America"},{"name_en":"Kutná Hora: Historical Town Centre with the Church of St Barbara and the Cathedral of Our Lady at Sedlec","longitude":"15.2666666667","latitude":"49.95","states_name_en":"Czechia","region_en":"Europe and North America"},{"name_en":"Lednice-Valtice Cultural Landscape","longitude":"16.775","latitude":"48.77583","states_name_en":"Czechia","region_en":"Europe and North America"},{"name_en":"Holy Trinity Column in Olomouc","longitude":"17.2504583333","latitude":"49.5939361111","states_name_en":"Czechia","region_en":"Europe and North America"},{"name_en":"Gardens and Castle at Kroměříž","longitude":"17.37722222","latitude":"49.3","states_name_en":"Czechia","region_en":"Europe and North America"},{"name_en":"Holašovice Historic Village","longitude":"14.25277778","latitude":"48.95972222","states_name_en":"Czechia","region_en":"Europe and North America"},{"name_en":"Litomyšl Castle","longitude":"16.31444","latitude":"49.87361","states_name_en":"Czechia","region_en":"Europe and North America"},{"name_en":"Tugendhat Villa in Brno","longitude":"16.6160555556","latitude":"49.2071833333","states_name_en":"Czechia","region_en":"Europe and North America"},{"name_en":"Jewish Quarter and St Procopius' Basilica in Třebíč","longitude":"15.87888889","latitude":"49.21722222","states_name_en":"Czechia","region_en":"Europe and North America"},{"name_en":"Complex of Koguryo Tombs","longitude":"125.415","latitude":"38.86305556","states_name_en":"Democratic People's Republic of Korea","region_en":"Asia and the Pacific"},{"name_en":"Historic Monuments and Sites in Kaesong","longitude":"126.5080555556","latitude":"37.9816666667","states_name_en":"Democratic People's Republic of Korea","region_en":"Asia and the Pacific"},{"name_en":"Virunga National Park","longitude":"29.16666667","latitude":"0.916666667","states_name_en":"Democratic Republic of the Congo","region_en":"Africa"},{"name_en":"Garamba National Park","longitude":"29.25","latitude":"4.0","states_name_en":"Democratic Republic of the Congo","region_en":"Africa"},{"name_en":"Kahuzi-Biega National Park","longitude":"28.75","latitude":"-2.5","states_name_en":"Democratic Republic of the Congo","region_en":"Africa"},{"name_en":"Salonga National Park","longitude":"21.0","latitude":"-2.0","states_name_en":"Democratic Republic of the Congo","region_en":"Africa"},{"name_en":"Okapi Wildlife Reserve","longitude":"28.5","latitude":"2.0","states_name_en":"Democratic Republic of the Congo","region_en":"Africa"},{"name_en":"Roskilde Cathedral","longitude":"12.07972222","latitude":"55.64222222","states_name_en":"Denmark","region_en":"Europe and North America"},{"name_en":"Kronborg Castle","longitude":"12.62083333","latitude":"56.03889","states_name_en":"Denmark","region_en":"Europe and North America"},{"name_en":"Jelling Mounds, Runic Stones and Church","longitude":"9.42","latitude":"55.75638889","states_name_en":"Denmark","region_en":"Europe and North America"},{"name_en":"Ilulissat Icefjord","longitude":"-49.5","latitude":"69.13333333","states_name_en":"Denmark","region_en":"Europe and North America"},{"name_en":"Stevns Klint","longitude":"12.4233333333","latitude":"55.2672222222","states_name_en":"Denmark","region_en":"Europe and North America"},{"name_en":"Christiansfeld, a Moravian Church Settlement","longitude":"9.4813888889","latitude":"55.3555555556","states_name_en":"Denmark","region_en":"Europe and North America"},{"name_en":"The par force hunting landscape in North Zealand","longitude":"12.3577777778","latitude":"55.9136111111","states_name_en":"Denmark","region_en":"Europe and North America"},{"name_en":"Kujataa Greenland: Norse and Inuit Farming at the Edge of the Ice Cap","longitude":"-45.5980555556","latitude":"61.1644444444","states_name_en":"Denmark","region_en":"Europe and North America"},{"name_en":"Aasivissuit – Nipisat. Inuit Hunting Ground between Ice and Sea","longitude":"-51.4332055556","latitude":"67.0639305556","states_name_en":"Denmark","region_en":"Europe and North America"},{"name_en":"Morne Trois Pitons National Park","longitude":"-61.28333333","latitude":"15.26666667","states_name_en":"Dominica","region_en":"Latin America and the Caribbean"},{"name_en":"Colonial City of Santo Domingo","longitude":"-69.91666667","latitude":"18.48333333","states_name_en":"Dominican Republic","region_en":"Latin America and the Caribbean"},{"name_en":"Galápagos Islands","longitude":"-91.0","latitude":"-0.81667","states_name_en":"Ecuador","region_en":"Latin America and the Caribbean"},{"name_en":"City of Quito","longitude":"-78.5","latitude":"-0.003888889","states_name_en":"Ecuador","region_en":"Latin America and the Caribbean"},{"name_en":"Sangay National Park","longitude":"-78.33333","latitude":"-1.83333","states_name_en":"Ecuador","region_en":"Latin America and the Caribbean"},{"name_en":"Historic Centre of Santa Ana de los Ríos de Cuenca","longitude":"-78.98333333","latitude":"-2.883333333","states_name_en":"Ecuador","region_en":"Latin America and the Caribbean"},{"name_en":"Memphis and its Necropolis – the Pyramid Fields from Giza to Dahshur","longitude":"31.13041","latitude":"29.97604","states_name_en":"Egypt","region_en":"Arab States"},{"name_en":"Ancient Thebes with its Necropolis","longitude":"32.6","latitude":"25.73333","states_name_en":"Egypt","region_en":"Arab States"},{"name_en":"Nubian Monuments from Abu Simbel to Philae","longitude":"31.6258055556","latitude":"22.3372222222","states_name_en":"Egypt","region_en":"Arab States"},{"name_en":"Historic Cairo","longitude":"31.26111","latitude":"30.05","states_name_en":"Egypt","region_en":"Arab States"},{"name_en":"Abu Mena","longitude":"29.66666667","latitude":"30.8358333333","states_name_en":"Egypt","region_en":"Arab States"},{"name_en":"Saint Catherine Area","longitude":"33.97543","latitude":"28.55623","states_name_en":"Egypt","region_en":"Arab States"},{"name_en":"Wadi Al-Hitan (Whale Valley)","longitude":"30.18333","latitude":"29.33333","states_name_en":"Egypt","region_en":"Arab States"},{"name_en":"Joya de Cerén Archaeological Site","longitude":"-89.36916667","latitude":"13.8275","states_name_en":"El Salvador","region_en":"Latin America and the Caribbean"},{"name_en":"Asmara: A Modernist African City","longitude":"38.9358333333","latitude":"15.3352777778","states_name_en":"Eritrea","region_en":"Africa"},{"name_en":"Historic Centre (Old Town) of Tallinn","longitude":"24.73333333","latitude":"59.43333","states_name_en":"Estonia","region_en":"Europe and North America"},{"name_en":"Simien National Park","longitude":"38.0666666667","latitude":"13.1833333333","states_name_en":"Ethiopia","region_en":"Africa"},{"name_en":"Lower Valley of the Awash","longitude":"40.57939","latitude":"11.10006","states_name_en":"Ethiopia","region_en":"Africa"},{"name_en":"Tiya","longitude":"38.6121","latitude":"8.43491","states_name_en":"Ethiopia","region_en":"Africa"},{"name_en":"Aksum","longitude":"38.71861","latitude":"14.13019","states_name_en":"Ethiopia","region_en":"Africa"},{"name_en":"Lower Valley of the Omo","longitude":"35.96666667","latitude":"4.8","states_name_en":"Ethiopia","region_en":"Africa"},{"name_en":"Rock-Hewn Churches, Lalibela","longitude":"39.04042","latitude":"12.02935","states_name_en":"Ethiopia","region_en":"Africa"},{"name_en":"Fasil Ghebbi, Gondar Region","longitude":"37.46617","latitude":"12.60692","states_name_en":"Ethiopia","region_en":"Africa"},{"name_en":"Harar Jugol, the Fortified Historic Town","longitude":"42.1377777777","latitude":"9.3088888888","states_name_en":"Ethiopia","region_en":"Africa"},{"name_en":"Konso Cultural Landscape","longitude":"37.4","latitude":"5.3","states_name_en":"Ethiopia","region_en":"Africa"},{"name_en":"Levuka Historical Port Town","longitude":"178.8345333333","latitude":"-17.6833777778","states_name_en":"Fiji","region_en":"Asia and the Pacific"},{"name_en":"Bronze Age Burial Site of Sammallahdenmäki","longitude":"21.7775","latitude":"61.12056","states_name_en":"Finland","region_en":"Europe and North America"},{"name_en":"Old Rauma","longitude":"21.51167","latitude":"61.12806","states_name_en":"Finland","region_en":"Europe and North America"},{"name_en":"Fortress of Suomenlinna","longitude":"24.98722","latitude":"60.14722","states_name_en":"Finland","region_en":"Europe and North America"},{"name_en":"Petäjävesi Old Church","longitude":"25.18333","latitude":"62.25","states_name_en":"Finland","region_en":"Europe and North America"},{"name_en":"Verla Groundwood and Board Mill","longitude":"26.64083","latitude":"61.06194","states_name_en":"Finland","region_en":"Europe and North America"},{"name_en":"Mont-Saint-Michel and its Bay","longitude":"-1.51056","latitude":"48.63556","states_name_en":"France","region_en":"Europe and North America"},{"name_en":"Chartres Cathedral","longitude":"1.487222222","latitude":"48.4475","states_name_en":"France","region_en":"Europe and North America"},{"name_en":"Palace and Park of Versailles","longitude":"2.119444444","latitude":"48.805","states_name_en":"France","region_en":"Europe and North America"},{"name_en":"Vézelay, Church and Hill","longitude":"3.748333333","latitude":"47.46638889","states_name_en":"France","region_en":"Europe and North America"},{"name_en":"Prehistoric Sites and Decorated Caves of the Vézère Valley","longitude":"1.17","latitude":"45.0575","states_name_en":"France","region_en":"Europe and North America"},{"name_en":"Palace and Park of Fontainebleau","longitude":"2.698055556","latitude":"48.40194444","states_name_en":"France","region_en":"Europe and North America"},{"name_en":"Amiens Cathedral","longitude":"2.301666667","latitude":"49.895","states_name_en":"France","region_en":"Europe and North America"},{"name_en":"Roman Theatre and its Surroundings and the \"Triumphal Arch\" of Orange","longitude":"4.808416667","latitude":"44.13572222","states_name_en":"France","region_en":"Europe and North America"},{"name_en":"Arles, Roman and Romanesque Monuments","longitude":"4.630694444","latitude":"43.67763889","states_name_en":"France","region_en":"Europe and North America"},{"name_en":"Cistercian Abbey of Fontenay","longitude":"4.38911","latitude":"47.63944","states_name_en":"France","region_en":"Europe and North America"},{"name_en":"From the Great Saltworks of Salins-les-Bains to the Royal Saltworks of Arc-et-Senans, the Production of Open-pan Salt ","longitude":"5.8763888889","latitude":"46.9375","states_name_en":"France","region_en":"Europe and North America"},{"name_en":"Historic Centre of Avignon: Papal Palace, Episcopal Ensemble and Avignon Bridge","longitude":"4.806111111","latitude":"43.95277778","states_name_en":"France","region_en":"Europe and North America"},{"name_en":"Place Stanislas, Place de la Carrière and Place d'Alliance in Nancy","longitude":"6.183333333","latitude":"48.69361111","states_name_en":"France","region_en":"Europe and North America"},{"name_en":"Abbey Church of Saint-Savin sur Gartempe","longitude":"0.86611","latitude":"46.56472","states_name_en":"France","region_en":"Europe and North America"},{"name_en":"Gulf of Porto: Calanche of Piana, Gulf of Girolata, Scandola Reserve","longitude":"8.628833333","latitude":"42.32519444","states_name_en":"France","region_en":"Europe and North America"},{"name_en":"Pont du Gard (Roman Aqueduct)","longitude":"4.535277778","latitude":"43.94722222","states_name_en":"France","region_en":"Europe and North America"},{"name_en":"Historic Fortified City of Carcassonne","longitude":"2.358888889","latitude":"43.21055556","states_name_en":"France","region_en":"Europe and North America"},{"name_en":"Strasbourg, Grande-Île and <em>Neustadt</em>","longitude":"7.7488888889","latitude":"48.5844444444","states_name_en":"France","region_en":"Europe and North America"},{"name_en":"Paris, Banks of the Seine","longitude":"2.294166667","latitude":"48.85833333","states_name_en":"France","region_en":"Europe and North America"},{"name_en":"Cathedral of Notre-Dame, Former Abbey of Saint-Rémi and Palace of Tau, Reims","longitude":"4.032777778","latitude":"49.25333333","states_name_en":"France","region_en":"Europe and North America"},{"name_en":"Bourges Cathedral","longitude":"2.398333333","latitude":"47.08222222","states_name_en":"France","region_en":"Europe and North America"},{"name_en":"Canal du Midi","longitude":"1.416388889","latitude":"43.61138889","states_name_en":"France","region_en":"Europe and North America"},{"name_en":"Routes of Santiago de Compostela in France","longitude":"0.722944444","latitude":"45.18405556","states_name_en":"France","region_en":"Europe and North America"},{"name_en":"Historic Site of Lyon","longitude":"4.83333","latitude":"45.76722","states_name_en":"France","region_en":"Europe and North America"},{"name_en":"Provins, Town of Medieval Fairs","longitude":"3.298888889","latitude":"48.55972222","states_name_en":"France","region_en":"Europe and North America"},{"name_en":"Jurisdiction of Saint-Emilion","longitude":"-0.155277778","latitude":"44.89472222","states_name_en":"France","region_en":"Europe and North America"},{"name_en":"The Loire Valley between Sully-sur-Loire and Chalonnes","longitude":"0.70278","latitude":"47.39889","states_name_en":"France","region_en":"Europe and North America"},{"name_en":"Lagoons of New Caledonia: Reef Diversity and Associated Ecosystems","longitude":"164.5663888889","latitude":"-20.4119444444","states_name_en":"France","region_en":"Europe and North America"},{"name_en":"The Causses and the Cévennes, Mediterranean agro-pastoral Cultural Landscape","longitude":"3.4730555556","latitude":"44.2202777778","states_name_en":"France","region_en":"Europe and North America"},{"name_en":"Le Havre, the City Rebuilt by Auguste Perret","longitude":"0.1075","latitude":"49.49278","states_name_en":"France","region_en":"Europe and North America"},{"name_en":"Bordeaux, Port of the Moon","longitude":"-0.5722222222","latitude":"44.8388888889","states_name_en":"France","region_en":"Europe and North America"},{"name_en":"Fortifications of Vauban","longitude":"6.0269444444","latitude":"47.2361111111","states_name_en":"France","region_en":"Europe and North America"},{"name_en":"Pitons, cirques and remparts of Reunion Island","longitude":"55.48","latitude":"-21.0994444444","states_name_en":"France","region_en":"Europe and North America"},{"name_en":"Episcopal City of Albi","longitude":"2.1425","latitude":"43.9283333333","states_name_en":"France","region_en":"Europe and North America"},{"name_en":"Nord-Pas de Calais Mining Basin","longitude":"3.5461111111","latitude":"50.4625","states_name_en":"France","region_en":"Europe and North America"},{"name_en":"The Climats, terroirs of Burgundy","longitude":"4.8644444444","latitude":"47.0580555556","states_name_en":"France","region_en":"Europe and North America"},{"name_en":"Decorated Cave of Pont d’Arc, known as Grotte Chauvet-Pont d’Arc, Ardèche","longitude":"4.4161111111","latitude":"44.3875","states_name_en":"France","region_en":"Europe and North America"},{"name_en":"Chaîne des Puys - Limagne fault tectonic arena","longitude":"2.9651111111","latitude":"45.7793888889","states_name_en":"France","region_en":"Europe and North America"},{"name_en":"Champagne Hillsides, Houses and Cellars","longitude":"3.9461111111","latitude":"49.0775","states_name_en":"France","region_en":"Europe and North America"},{"name_en":"Taputapuātea","longitude":"-151.3723777778","latitude":"-16.8414","states_name_en":"France","region_en":"Europe and North America"},{"name_en":"Ecosystem and Relict Cultural Landscape of Lopé-Okanda","longitude":"11.5","latitude":"-0.5","states_name_en":"Gabon","region_en":"Africa"},{"name_en":"Kunta Kinteh Island and Related Sites","longitude":"-16.35719444","latitude":"13.31616667","states_name_en":"Gambia (the)","region_en":"Africa"},{"name_en":"Historical Monuments of Mtskheta","longitude":"44.71639","latitude":"41.84389","states_name_en":"Georgia","region_en":"Europe and North America"},{"name_en":"Upper Svaneti","longitude":"43.01139","latitude":"42.91639","states_name_en":"Georgia","region_en":"Europe and North America"},{"name_en":"Gelati Monastery","longitude":"42.7683333333","latitude":"42.2947222222","states_name_en":"Georgia","region_en":"Europe and North America"},{"name_en":"Aachen Cathedral ","longitude":"6.084444444","latitude":"50.77444444","states_name_en":"Germany","region_en":"Europe and North America"},{"name_en":"Speyer Cathedral","longitude":"8.443055556","latitude":"49.31666667","states_name_en":"Germany","region_en":"Europe and North America"},{"name_en":"Würzburg Residence with the Court Gardens and Residence Square","longitude":"9.93889","latitude":"49.79278","states_name_en":"Germany","region_en":"Europe and North America"},{"name_en":"St Mary's Cathedral and St Michael's Church at Hildesheim","longitude":"9.94389","latitude":"52.15278","states_name_en":"Germany","region_en":"Europe and North America"},{"name_en":"Pilgrimage Church of Wies","longitude":"10.90013889","latitude":"47.68127778","states_name_en":"Germany","region_en":"Europe and North America"},{"name_en":"Hanseatic City of Lübeck","longitude":"10.69167","latitude":"53.86667","states_name_en":"Germany","region_en":"Europe and North America"},{"name_en":"Castles of Augustusburg and Falkenlust at Brühl","longitude":"6.909777778","latitude":"50.82502778","states_name_en":"Germany","region_en":"Europe and North America"},{"name_en":"Cologne Cathedral","longitude":"6.957222222","latitude":"50.94111111","states_name_en":"Germany","region_en":"Europe and North America"},{"name_en":"Roman Monuments, Cathedral of St Peter and Church of Our Lady in Trier","longitude":"6.633333333","latitude":"49.75","states_name_en":"Germany","region_en":"Europe and North America"},{"name_en":"Abbey and Altenmünster of Lorsch","longitude":"8.56858","latitude":"49.65369","states_name_en":"Germany","region_en":"Europe and North America"},{"name_en":"Palaces and Parks of Potsdam and Berlin","longitude":"13.03333333","latitude":"52.4","states_name_en":"Germany","region_en":"Europe and North America"},{"name_en":"Garden Kingdom of Dessau-Wörlitz","longitude":"12.42083","latitude":"51.8425","states_name_en":"Germany","region_en":"Europe and North America"},{"name_en":"Collegiate Church, Castle and Old Town of Quedlinburg","longitude":"11.15","latitude":"51.78333","states_name_en":"Germany","region_en":"Europe and North America"},{"name_en":"Maulbronn Monastery Complex","longitude":"8.81306","latitude":"49.00083","states_name_en":"Germany","region_en":"Europe and North America"},{"name_en":"Mines of Rammelsberg, Historic Town of Goslar and Upper Harz Water Management  System","longitude":"10.34","latitude":"51.82","states_name_en":"Germany","region_en":"Europe and North America"},{"name_en":"Town of Bamberg","longitude":"10.88888889","latitude":"49.89166667","states_name_en":"Germany","region_en":"Europe and North America"},{"name_en":"Völklingen Ironworks","longitude":"6.85","latitude":"49.24444","states_name_en":"Germany","region_en":"Europe and North America"},{"name_en":"Messel Pit Fossil Site","longitude":"8.75389","latitude":"49.91667","states_name_en":"Germany","region_en":"Europe and North America"},{"name_en":"Bauhaus and its Sites in Weimar, Dessau and Bernau","longitude":"11.3295","latitude":"50.9747777778","states_name_en":"Germany","region_en":"Europe and North America"},{"name_en":"Luther Memorials in Eisleben and Wittenberg","longitude":"12.65278","latitude":"51.86472","states_name_en":"Germany","region_en":"Europe and North America"},{"name_en":"Classical Weimar","longitude":"11.32861","latitude":"50.9775","states_name_en":"Germany","region_en":"Europe and North America"},{"name_en":"Museumsinsel (Museum Island), Berlin","longitude":"13.39861111","latitude":"52.51972222","states_name_en":"Germany","region_en":"Europe and North America"},{"name_en":"Wartburg Castle","longitude":"10.307","latitude":"50.96677778","states_name_en":"Germany","region_en":"Europe and North America"},{"name_en":"Monastic Island of Reichenau","longitude":"9.061305556","latitude":"47.69872222","states_name_en":"Germany","region_en":"Europe and North America"},{"name_en":"Zollverein Coal Mine Industrial Complex in Essen","longitude":"7.046111111","latitude":"51.49138889","states_name_en":"Germany","region_en":"Europe and North America"},{"name_en":"Upper Middle Rhine Valley","longitude":"7.694166667","latitude":"50.17361111","states_name_en":"Germany","region_en":"Europe and North America"},{"name_en":"Historic Centres of Stralsund and Wismar","longitude":"13.08527778","latitude":"54.3025","states_name_en":"Germany","region_en":"Europe and North America"},{"name_en":"Town Hall and Roland on the Marketplace of Bremen","longitude":"8.807472222","latitude":"53.07597222","states_name_en":"Germany","region_en":"Europe and North America"},{"name_en":"Old town of Regensburg with Stadtamhof","longitude":"12.09916667","latitude":"49.02055556","states_name_en":"Germany","region_en":"Europe and North America"},{"name_en":"Berlin Modernism Housing Estates","longitude":"13.45","latitude":"52.4483333333","states_name_en":"Germany","region_en":"Europe and North America"},{"name_en":"Fagus Factory in Alfeld","longitude":"9.8111111111","latitude":"51.9836111111","states_name_en":"Germany","region_en":"Europe and North America"},{"name_en":"Margravial Opera House Bayreuth","longitude":"11.5786111111","latitude":"49.9444444444","states_name_en":"Germany","region_en":"Europe and North America"},{"name_en":"Bergpark Wilhelmshöhe","longitude":"9.3930555556","latitude":"51.3158333333","states_name_en":"Germany","region_en":"Europe and North America"},{"name_en":"Carolingian Westwork and Civitas Corvey","longitude":"9.41025","latitude":"51.7782777778","states_name_en":"Germany","region_en":"Europe and North America"},{"name_en":"Speicherstadt and Kontorhaus District with Chilehaus","longitude":"9.9994444444","latitude":"53.5455555556","states_name_en":"Germany","region_en":"Europe and North America"},{"name_en":"Naumburg Cathedral","longitude":"11.804","latitude":"51.1548055556","states_name_en":"Germany","region_en":"Europe and North America"},{"name_en":"Caves and Ice Age Art in the Swabian Jura","longitude":"9.7655555556","latitude":"48.3877777778","states_name_en":"Germany","region_en":"Europe and North America"},{"name_en":"Archaeological Border complex of Hedeby and the Danevirke","longitude":"9.4541111111","latitude":"54.4619444444","states_name_en":"Germany","region_en":"Europe and North America"},{"name_en":"Forts and Castles, Volta, Greater Accra, Central and Western Regions","longitude":"-0.49361","latitude":"5.39103","states_name_en":"Ghana","region_en":"Africa"},{"name_en":"Asante Traditional Buildings","longitude":"-1.6258333333","latitude":"6.4011111111","states_name_en":"Ghana","region_en":"Africa"},{"name_en":"Temple of Apollo Epicurius at Bassae","longitude":"21.89694","latitude":"37.43498","states_name_en":"Greece","region_en":"Europe and North America"},{"name_en":"Archaeological Site of Delphi","longitude":"22.49617","latitude":"38.48149","states_name_en":"Greece","region_en":"Europe and North America"},{"name_en":"Acropolis, Athens","longitude":"23.72618","latitude":"37.97087","states_name_en":"Greece","region_en":"Europe and North America"},{"name_en":"Mount Athos","longitude":"24.21667","latitude":"40.26667","states_name_en":"Greece","region_en":"Europe and North America"},{"name_en":"Meteora","longitude":"21.63333","latitude":"39.71667","states_name_en":"Greece","region_en":"Europe and North America"},{"name_en":"Paleochristian and Byzantine Monuments of Thessalonika","longitude":"22.965","latitude":"40.63833","states_name_en":"Greece","region_en":"Europe and North America"},{"name_en":"Sanctuary of Asklepios at Epidaurus","longitude":"23.11666667","latitude":"37.66666667","states_name_en":"Greece","region_en":"Europe and North America"},{"name_en":"Medieval City of Rhodes","longitude":"28.22778","latitude":"36.44722","states_name_en":"Greece","region_en":"Europe and North America"},{"name_en":"Archaeological Site of Mystras","longitude":"22.36667","latitude":"37.08056","states_name_en":"Greece","region_en":"Europe and North America"},{"name_en":"Archaeological Site of Olympia","longitude":"21.66666667","latitude":"37.65","states_name_en":"Greece","region_en":"Europe and North America"},{"name_en":"Delos","longitude":"25.26667","latitude":"37.4","states_name_en":"Greece","region_en":"Europe and North America"},{"name_en":"Monasteries of Daphni, Hosios Loukas and Nea Moni of Chios","longitude":"22.75","latitude":"38.4","states_name_en":"Greece","region_en":"Europe and North America"},{"name_en":"Pythagoreion and Heraion of Samos","longitude":"26.94333","latitude":"37.69083","states_name_en":"Greece","region_en":"Europe and North America"},{"name_en":"Archaeological Site of Aigai (modern name Vergina)","longitude":"22.31833","latitude":"40.47139","states_name_en":"Greece","region_en":"Europe and North America"},{"name_en":"Archaeological Sites of Mycenae and Tiryns","longitude":"22.75","latitude":"37.73333333","states_name_en":"Greece","region_en":"Europe and North America"},{"name_en":"The Historic Centre (Chorá) with the Monastery of Saint-John the Theologian and the Cave of the Apocalypse on the Island of Pátmos","longitude":"26.55","latitude":"37.3","states_name_en":"Greece","region_en":"Europe and North America"},{"name_en":"Old Town of Corfu","longitude":"19.9275","latitude":"39.6239413889","states_name_en":"Greece","region_en":"Europe and North America"},{"name_en":"Archaeological Site of Philippi","longitude":"24.2852777778","latitude":"41.0147222222","states_name_en":"Greece","region_en":"Europe and North America"},{"name_en":"Tikal National Park","longitude":"-89.61666667","latitude":"17.21666667","states_name_en":"Guatemala","region_en":"Latin America and the Caribbean"},{"name_en":"Antigua Guatemala","longitude":"-90.66666667","latitude":"14.56666667","states_name_en":"Guatemala","region_en":"Latin America and the Caribbean"},{"name_en":"Archaeological Park and Ruins of Quirigua","longitude":"-89.04025","latitude":"15.27059","states_name_en":"Guatemala","region_en":"Latin America and the Caribbean"},{"name_en":"National History Park – Citadel, Sans Souci, Ramiers","longitude":"-72.24417","latitude":"19.57361","states_name_en":"Haiti","region_en":"Latin America and the Caribbean"},{"name_en":"Vatican City","longitude":"12.45736","latitude":"41.90216","states_name_en":"Holy See","region_en":"Europe and North America"},{"name_en":"Maya Site of Copan","longitude":"-89.13333","latitude":"14.85","states_name_en":"Honduras","region_en":"Latin America and the Caribbean"},{"name_en":"Río Plátano Biosphere Reserve","longitude":"-84.675","latitude":"15.74444444","states_name_en":"Honduras","region_en":"Latin America and the Caribbean"},{"name_en":"Budapest, including the Banks of the Danube, the Buda Castle Quarter and Andrássy Avenue","longitude":"19.07067","latitude":"47.48242","states_name_en":"Hungary","region_en":"Europe and North America"},{"name_en":"Old Village of Hollókő and its Surroundings","longitude":"19.52917","latitude":"47.99444","states_name_en":"Hungary","region_en":"Europe and North America"},{"name_en":"Hortobágy National Park - the <i>Puszta</i>","longitude":"21.15678","latitude":"47.59458","states_name_en":"Hungary","region_en":"Europe and North America"},{"name_en":"Millenary Benedictine Abbey of Pannonhalma and its Natural Environment","longitude":"17.78444","latitude":"47.55889","states_name_en":"Hungary","region_en":"Europe and North America"},{"name_en":"Early Christian Necropolis of Pécs (Sopianae)","longitude":"18.22778","latitude":"46.07444","states_name_en":"Hungary","region_en":"Europe and North America"},{"name_en":"Tokaj Wine Region Historic Cultural Landscape","longitude":"21.35","latitude":"48.15","states_name_en":"Hungary","region_en":"Europe and North America"},{"name_en":"Þingvellir National Park","longitude":"-21.03725","latitude":"64.25380556","states_name_en":"Iceland","region_en":"Europe and North America"},{"name_en":"Surtsey","longitude":"-20.6022222222","latitude":"63.3030555556","states_name_en":"Iceland","region_en":"Europe and North America"},{"name_en":"Red Fort Complex","longitude":"77.2408333333","latitude":"28.6555555556","states_name_en":"India","region_en":"Asia and the Pacific"},{"name_en":"Humayun's Tomb, Delhi","longitude":"77.25056","latitude":"28.59333","states_name_en":"India","region_en":"Asia and the Pacific"},{"name_en":"Qutb Minar and its Monuments, Delhi","longitude":"77.18528","latitude":"28.52583","states_name_en":"India","region_en":"Asia and the Pacific"},{"name_en":"Churches and Convents of Goa","longitude":"73.91167","latitude":"15.50222","states_name_en":"India","region_en":"Asia and the Pacific"},{"name_en":"Group of Monuments at Pattadakal","longitude":"75.81667","latitude":"15.94833","states_name_en":"India","region_en":"Asia and the Pacific"},{"name_en":"Khajuraho Group of Monuments","longitude":"79.92222","latitude":"24.85222","states_name_en":"India","region_en":"Asia and the Pacific"},{"name_en":"Group of Monuments at Hampi","longitude":"76.47167","latitude":"15.31444","states_name_en":"India","region_en":"Asia and the Pacific"},{"name_en":"Ajanta Caves","longitude":"75.7","latitude":"20.55333","states_name_en":"India","region_en":"Asia and the Pacific"},{"name_en":"Ellora Caves","longitude":"75.17917","latitude":"20.02639","states_name_en":"India","region_en":"Asia and the Pacific"},{"name_en":"Elephanta Caves","longitude":"72.93583","latitude":"18.96667","states_name_en":"India","region_en":"Asia and the Pacific"},{"name_en":"Sun Temple, Konârak","longitude":"86.09472","latitude":"19.8875","states_name_en":"India","region_en":"Asia and the Pacific"},{"name_en":"Hill Forts of Rajasthan","longitude":"74.6461111111","latitude":"24.8833333333","states_name_en":"India","region_en":"Asia and the Pacific"},{"name_en":"Group of Monuments at Mahabalipuram","longitude":"80.19167","latitude":"12.61667","states_name_en":"India","region_en":"Asia and the Pacific"},{"name_en":"Great Living Chola Temples","longitude":"79.1325","latitude":"10.78305556","states_name_en":"India","region_en":"Asia and the Pacific"},{"name_en":"Agra Fort","longitude":"78.03333333","latitude":"27.18333333","states_name_en":"India","region_en":"Asia and the Pacific"},{"name_en":"Taj Mahal","longitude":"78.04222","latitude":"27.17417","states_name_en":"India","region_en":"Asia and the Pacific"},{"name_en":"Fatehpur Sikri","longitude":"77.66417","latitude":"27.09444","states_name_en":"India","region_en":"Asia and the Pacific"},{"name_en":"Nanda Devi and Valley of Flowers National Parks  ","longitude":"79.66667","latitude":"30.71667","states_name_en":"India","region_en":"Asia and the Pacific"},{"name_en":"Kaziranga National Park","longitude":"93.41666667","latitude":"26.66666667","states_name_en":"India","region_en":"Asia and the Pacific"},{"name_en":"Manas Wildlife Sanctuary","longitude":"91.03055556","latitude":"26.725","states_name_en":"India","region_en":"Asia and the Pacific"},{"name_en":"Keoladeo National Park","longitude":"77.50861111","latitude":"27.15888889","states_name_en":"India","region_en":"Asia and the Pacific"},{"name_en":"Sundarbans National Park","longitude":"88.89583333","latitude":"21.945","states_name_en":"India","region_en":"Asia and the Pacific"},{"name_en":"Buddhist Monuments at Sanchi","longitude":"77.73972","latitude":"23.47944","states_name_en":"India","region_en":"Asia and the Pacific"},{"name_en":"Rani-ki-Vav (the Queen’s Stepwell) at Patan, Gujarat","longitude":"72.1016666667","latitude":"23.8588888889","states_name_en":"India","region_en":"Asia and the Pacific"},{"name_en":"Rock Shelters of Bhimbetka","longitude":"77.58333333","latitude":"22.92777778","states_name_en":"India","region_en":"Asia and the Pacific"},{"name_en":"Mountain Railways of India","longitude":"76.93583","latitude":"11.51028","states_name_en":"India","region_en":"Asia and the Pacific"},{"name_en":"Chhatrapati Shivaji Terminus (formerly Victoria Terminus)","longitude":"72.8362027777","latitude":"18.9401222222","states_name_en":"India","region_en":"Asia and the Pacific"},{"name_en":"Mahabodhi Temple Complex at Bodh Gaya","longitude":"84.99389","latitude":"24.69528","states_name_en":"India","region_en":"Asia and the Pacific"},{"name_en":"Champaner-Pavagadh Archaeological Park","longitude":"73.53333333","latitude":"22.48333333","states_name_en":"India","region_en":"Asia and the Pacific"},{"name_en":"The Jantar Mantar, Jaipur","longitude":"75.825","latitude":"26.9247222222","states_name_en":"India","region_en":"Asia and the Pacific"},{"name_en":"Western Ghats","longitude":"77.2497222222","latitude":"8.5297222222","states_name_en":"India","region_en":"Asia and the Pacific"},{"name_en":"Great Himalayan National Park Conservation Area","longitude":"77.5833333333","latitude":"31.8333333333","states_name_en":"India","region_en":"Asia and the Pacific"},{"name_en":"Victorian Gothic and Art Deco Ensembles of Mumbai","longitude":"72.8300833333","latitude":"18.9298055556","states_name_en":"India","region_en":"Asia and the Pacific"},{"name_en":"Archaeological Site of Nalanda Mahavihara at Nalanda, Bihar","longitude":"85.4438888889","latitude":"25.1366666667","states_name_en":"India","region_en":"Asia and the Pacific"},{"name_en":"Khangchendzonga National Park","longitude":"88.3772222222","latitude":"27.7647222222","states_name_en":"India","region_en":"Asia and the Pacific"},{"name_en":"Historic City of Ahmadabad","longitude":"72.5880555556","latitude":"23.0263888889","states_name_en":"India","region_en":"Asia and the Pacific"},{"name_en":"Borobudur Temple Compounds","longitude":"110.20361","latitude":"-7.60778","states_name_en":"Indonesia","region_en":"Asia and the Pacific"},{"name_en":"Sangiran Early Man Site","longitude":"110.8166667","latitude":"-7.4","states_name_en":"Indonesia","region_en":"Asia and the Pacific"},{"name_en":"Ujung Kulon National Park","longitude":"105.3333333","latitude":"-6.75","states_name_en":"Indonesia","region_en":"Asia and the Pacific"},{"name_en":"Komodo National Park","longitude":"119.48944","latitude":"-8.54333","states_name_en":"Indonesia","region_en":"Asia and the Pacific"},{"name_en":"Prambanan Temple Compounds","longitude":"110.49167","latitude":"-7.75222","states_name_en":"Indonesia","region_en":"Asia and the Pacific"},{"name_en":"Lorentz National Park","longitude":"137.83333","latitude":"-4.75","states_name_en":"Indonesia","region_en":"Asia and the Pacific"},{"name_en":"Tropical Rainforest Heritage of Sumatra","longitude":"101.5","latitude":"-2.5","states_name_en":"Indonesia","region_en":"Asia and the Pacific"},{"name_en":"Cultural Landscape of Bali Province: the <em>Subak</em> System as a Manifestation of the <em>Tri Hita Karana</em> Philosophy","longitude":"115.4027777778","latitude":"-8.2591666667","states_name_en":"Indonesia","region_en":"Asia and the Pacific"},{"name_en":"Tchogha Zanbil","longitude":"48.53333333","latitude":"32.0833","states_name_en":"Iran (Islamic Republic of)","region_en":"Asia and the Pacific"},{"name_en":"Persepolis","longitude":"52.89028","latitude":"29.93444","states_name_en":"Iran (Islamic Republic of)","region_en":"Asia and the Pacific"},{"name_en":"Meidan Emam, Esfahan","longitude":"51.6777777777","latitude":"32.65745","states_name_en":"Iran (Islamic Republic of)","region_en":"Asia and the Pacific"},{"name_en":"Takht-e Soleyman","longitude":"47.235","latitude":"36.60388889","states_name_en":"Iran (Islamic Republic of)","region_en":"Asia and the Pacific"},{"name_en":"Pasargadae","longitude":"53.16729","latitude":"30.19383","states_name_en":"Iran (Islamic Republic of)","region_en":"Asia and the Pacific"},{"name_en":"Soltaniyeh","longitude":"48.79667","latitude":"36.43528","states_name_en":"Iran (Islamic Republic of)","region_en":"Asia and the Pacific"},{"name_en":"Bam and its Cultural Landscape","longitude":"58.3666666667","latitude":"29.11683","states_name_en":"Iran (Islamic Republic of)","region_en":"Asia and the Pacific"},{"name_en":"Bisotun","longitude":"47.4366666666","latitude":"34.3883333333","states_name_en":"Iran (Islamic Republic of)","region_en":"Asia and the Pacific"},{"name_en":"Armenian Monastic Ensembles of Iran","longitude":"45.4733333333","latitude":"38.9788888889","states_name_en":"Iran (Islamic Republic of)","region_en":"Asia and the Pacific"},{"name_en":"Shushtar Historical Hydraulic System","longitude":"48.8358333333","latitude":"32.0186111111","states_name_en":"Iran (Islamic Republic of)","region_en":"Asia and the Pacific"},{"name_en":"Sheikh Safi al-din Khānegāh and Shrine Ensemble in Ardabil","longitude":"48.2913888889","latitude":"38.2486111111","states_name_en":"Iran (Islamic Republic of)","region_en":"Asia and the Pacific"},{"name_en":"Tabriz Historic Bazaar Complex","longitude":"46.2930555556","latitude":"38.0813888889","states_name_en":"Iran (Islamic Republic of)","region_en":"Asia and the Pacific"},{"name_en":"The Persian Garden","longitude":"53.1666666667","latitude":"30.1666666667","states_name_en":"Iran (Islamic Republic of)","region_en":"Asia and the Pacific"},{"name_en":"Masjed-e Jāmé of Isfahan  ","longitude":"51.6852777778","latitude":"32.6697222222","states_name_en":"Iran (Islamic Republic of)","region_en":"Asia and the Pacific"},{"name_en":"Gonbad-e Qābus","longitude":"55.169","latitude":"37.2580277778","states_name_en":"Iran (Islamic Republic of)","region_en":"Asia and the Pacific"},{"name_en":"Golestan Palace","longitude":"51.4205111111","latitude":"35.6803666667","states_name_en":"Iran (Islamic Republic of)","region_en":"Asia and the Pacific"},{"name_en":"Cultural Landscape of Maymand","longitude":"55.3755555556","latitude":"30.1680555556","states_name_en":"Iran (Islamic Republic of)","region_en":"Asia and the Pacific"},{"name_en":"Susa","longitude":"48.2561111111","latitude":"32.1894444444","states_name_en":"Iran (Islamic Republic of)","region_en":"Asia and the Pacific"},{"name_en":"Shahr-i Sokhta","longitude":"61.3277777778","latitude":"30.5938888889","states_name_en":"Iran (Islamic Republic of)","region_en":"Asia and the Pacific"},{"name_en":"Lut Desert","longitude":"58.8388888889","latitude":"30.2161111111","states_name_en":"Iran (Islamic Republic of)","region_en":"Asia and the Pacific"},{"name_en":"The Persian Qanat","longitude":"58.6544444444","latitude":"34.29","states_name_en":"Iran (Islamic Republic of)","region_en":"Asia and the Pacific"},{"name_en":"Historic City of Yazd","longitude":"54.3691666667","latitude":"31.9013888889","states_name_en":"Iran (Islamic Republic of)","region_en":"Asia and the Pacific"},{"name_en":"Sassanid Archaeological Landscape of Fars Region","longitude":"51.57045","latitude":"29.7774805556","states_name_en":"Iran (Islamic Republic of)","region_en":"Asia and the Pacific"},{"name_en":"Samarra Archaeological City","longitude":"43.8235430555","latitude":"34.3409894444","states_name_en":"Iraq","region_en":"Arab States"},{"name_en":"Hatra","longitude":"42.71833","latitude":"35.58806","states_name_en":"Iraq","region_en":"Arab States"},{"name_en":"Ashur (Qal'at Sherqat)","longitude":"43.2611111111","latitude":"35.4566666667","states_name_en":"Iraq","region_en":"Arab States"},{"name_en":"Erbil Citadel","longitude":"44.0091666667","latitude":"36.1911111111","states_name_en":"Iraq","region_en":"Arab States"},{"name_en":"The Ahwar of Southern Iraq: Refuge of Biodiversity and the Relict Landscape of the Mesopotamian Cities","longitude":"47.6577777778","latitude":"31.5622222222","states_name_en":"Iraq","region_en":"Arab States"},{"name_en":"Brú na Bóinne - Archaeological Ensemble of the Bend of the Boyne","longitude":"-6.45","latitude":"53.69167","states_name_en":"Ireland","region_en":"Europe and North America"},{"name_en":"Sceilg Mhichíl","longitude":"-10.53861","latitude":"51.77194","states_name_en":"Ireland","region_en":"Europe and North America"},{"name_en":"Masada","longitude":"35.35275","latitude":"31.3135","states_name_en":"Israel","region_en":"Europe and North America"},{"name_en":"Old City of Acre","longitude":"35.08388889","latitude":"32.92833333","states_name_en":"Israel","region_en":"Europe and North America"},{"name_en":"White City of Tel-Aviv – the Modern Movement","longitude":"34.78333333","latitude":"32.06666667","states_name_en":"Israel","region_en":"Europe and North America"},{"name_en":"Incense Route - Desert Cities in the Negev","longitude":"35.16083","latitude":"30.54111","states_name_en":"Israel","region_en":"Europe and North America"},{"name_en":"Biblical Tels - Megiddo, Hazor, Beer Sheba","longitude":"35.18222","latitude":"32.59722","states_name_en":"Israel","region_en":"Europe and North America"},{"name_en":"Bahá’i Holy Places in Haifa and the Western Galilee","longitude":"34.9716488888","latitude":"32.8293966667","states_name_en":"Israel","region_en":"Europe and North America"},{"name_en":"Caves of Maresha and Bet-Guvrin in the Judean Lowlands as a Microcosm of the Land of the Caves","longitude":"34.8955555556","latitude":"31.6","states_name_en":"Israel","region_en":"Europe and North America"},{"name_en":"Sites of Human Evolution at Mount Carmel: The Nahal Me’arot / Wadi el-Mughara Caves","longitude":"34.9652777778","latitude":"32.67","states_name_en":"Israel","region_en":"Europe and North America"},{"name_en":"Necropolis of Bet She’arim: A Landmark of Jewish Renewal","longitude":"35.1269444444","latitude":"32.7022222222","states_name_en":"Israel","region_en":"Europe and North America"},{"name_en":"Church and Dominican Convent of Santa Maria delle Grazie with “The Last Supper” by Leonardo da Vinci","longitude":"9.1705","latitude":"45.46588889","states_name_en":"Italy","region_en":"Europe and North America"},{"name_en":"Rock Drawings in Valcamonica","longitude":"10.29733333","latitude":"45.95705556","states_name_en":"Italy","region_en":"Europe and North America"},{"name_en":"Historic Centre of Florence","longitude":"11.25611","latitude":"43.77306","states_name_en":"Italy","region_en":"Europe and North America"},{"name_en":"Medici Villas and Gardens in Tuscany","longitude":"11.3041666667","latitude":"43.8577777778","states_name_en":"Italy","region_en":"Europe and North America"},{"name_en":"Venice and its Lagoon","longitude":"12.33894444","latitude":"45.43430556","states_name_en":"Italy","region_en":"Europe and North America"},{"name_en":"Piazza del Duomo, Pisa","longitude":"10.39638889","latitude":"43.72305556","states_name_en":"Italy","region_en":"Europe and North America"},{"name_en":"Castel del Monte","longitude":"16.27094444","latitude":"41.08480556","states_name_en":"Italy","region_en":"Europe and North America"},{"name_en":"18th-Century Royal Palace at Caserta with the Park, the Aqueduct of Vanvitelli, and the San Leucio Complex","longitude":"14.32639","latitude":"41.07333","states_name_en":"Italy","region_en":"Europe and North America"},{"name_en":"Historic Centre of San Gimignano","longitude":"11.04167","latitude":"43.46806","states_name_en":"Italy","region_en":"Europe and North America"},{"name_en":"The Sassi and the Park of the Rupestrian Churches of Matera","longitude":"16.61027778","latitude":"40.66638889","states_name_en":"Italy","region_en":"Europe and North America"},{"name_en":"City of Vicenza and the Palladian Villas of the Veneto","longitude":"11.54944444","latitude":"45.54916667","states_name_en":"Italy","region_en":"Europe and North America"},{"name_en":"Historic Centre of Siena","longitude":"11.33166667","latitude":"43.31861111","states_name_en":"Italy","region_en":"Europe and North America"},{"name_en":"Historic Centre of Naples","longitude":"14.26277778","latitude":"40.85138889","states_name_en":"Italy","region_en":"Europe and North America"},{"name_en":"Crespi d'Adda","longitude":"9.53833","latitude":"45.59333","states_name_en":"Italy","region_en":"Europe and North America"},{"name_en":"Ferrara, City of the Renaissance, and its Po Delta","longitude":"11.61944444","latitude":"44.83777778","states_name_en":"Italy","region_en":"Europe and North America"},{"name_en":"The <I>Trulli</I> of Alberobello","longitude":"17.23694","latitude":"40.7825","states_name_en":"Italy","region_en":"Europe and North America"},{"name_en":"Early Christian Monuments of Ravenna","longitude":"12.19625","latitude":"44.42041667","states_name_en":"Italy","region_en":"Europe and North America"},{"name_en":"Historic Centre of the City of Pienza","longitude":"11.67861111","latitude":"43.07694444","states_name_en":"Italy","region_en":"Europe and North America"},{"name_en":"City of Verona","longitude":"10.99388889","latitude":"45.43861111","states_name_en":"Italy","region_en":"Europe and North America"},{"name_en":"Residences of the Royal House of Savoy","longitude":"7.68572","latitude":"45.07253","states_name_en":"Italy","region_en":"Europe and North America"},{"name_en":"Botanical Garden (Orto Botanico), Padua","longitude":"11.88066667","latitude":"45.39911111","states_name_en":"Italy","region_en":"Europe and North America"},{"name_en":"Archaeological Area and the Patriarchal Basilica of Aquileia","longitude":"13.3675","latitude":"45.76833333","states_name_en":"Italy","region_en":"Europe and North America"},{"name_en":"Portovenere, Cinque Terre, and the Islands (Palmaria, Tino and Tinetto)","longitude":"9.72917","latitude":"44.10694","states_name_en":"Italy","region_en":"Europe and North America"},{"name_en":"Cathedral, Torre Civica and Piazza Grande, Modena","longitude":"10.92568","latitude":"44.64624","states_name_en":"Italy","region_en":"Europe and North America"},{"name_en":"Historic Centre of Urbino","longitude":"12.63333","latitude":"43.725","states_name_en":"Italy","region_en":"Europe and North America"},{"name_en":"Archaeological Areas of Pompei, Herculaneum and Torre Annunziata","longitude":"14.48333333","latitude":"40.75","states_name_en":"Italy","region_en":"Europe and North America"},{"name_en":"Costiera Amalfitana","longitude":"14.6","latitude":"40.65","states_name_en":"Italy","region_en":"Europe and North America"},{"name_en":"Archaeological Area of Agrigento","longitude":"13.59333333","latitude":"37.28972222","states_name_en":"Italy","region_en":"Europe and North America"},{"name_en":"Villa Romana del Casale","longitude":"14.33417","latitude":"37.36611","states_name_en":"Italy","region_en":"Europe and North America"},{"name_en":"Su Nuraxi di Barumini","longitude":"8.991388889","latitude":"39.70583333","states_name_en":"Italy","region_en":"Europe and North America"},{"name_en":"Cilento and Vallo di Diano National Park with the Archeological Sites of Paestum and Velia, and the Certosa di Padula","longitude":"15.26666667","latitude":"40.28333333","states_name_en":"Italy","region_en":"Europe and North America"},{"name_en":"Villa Adriana (Tivoli)","longitude":"12.77197222","latitude":"41.94416667","states_name_en":"Italy","region_en":"Europe and North America"},{"name_en":"Isole Eolie (Aeolian Islands)","longitude":"14.94558333","latitude":"38.48786111","states_name_en":"Italy","region_en":"Europe and North America"},{"name_en":"Assisi, the Basilica of San Francesco and Other Franciscan Sites","longitude":"12.62244444","latitude":"43.06616667","states_name_en":"Italy","region_en":"Europe and North America"},{"name_en":"Late Baroque Towns of the Val di Noto (South-Eastern Sicily)","longitude":"15.06891667","latitude":"36.89319444","states_name_en":"Italy","region_en":"Europe and North America"},{"name_en":"Villa d'Este, Tivoli","longitude":"12.79625","latitude":"41.96391667","states_name_en":"Italy","region_en":"Europe and North America"},{"name_en":"Val d'Orcia","longitude":"11.55","latitude":"43.06666667","states_name_en":"Italy","region_en":"Europe and North America"},{"name_en":"<I>Sacri Monti</I> of Piedmont and Lombardy","longitude":"9.169555556","latitude":"45.97455556","states_name_en":"Italy","region_en":"Europe and North America"},{"name_en":"Etruscan Necropolises of Cerveteri and Tarquinia","longitude":"12.10188889","latitude":"42.00683333","states_name_en":"Italy","region_en":"Europe and North America"},{"name_en":"Syracuse and the Rocky Necropolis of Pantalica","longitude":"15.29306","latitude":"37.05944","states_name_en":"Italy","region_en":"Europe and North America"},{"name_en":"Genoa: <i>Le Strade Nuove</i> and the system of the<i> Palazzi dei Rolli</i>","longitude":"8.9311111111","latitude":"44.4122222222","states_name_en":"Italy","region_en":"Europe and North America"},{"name_en":"The Dolomites","longitude":"12.1630555556","latitude":"46.6130555556","states_name_en":"Italy","region_en":"Europe and North America"},{"name_en":"Mantua and Sabbioneta","longitude":"10.7944444444","latitude":"45.1594444444","states_name_en":"Italy","region_en":"Europe and North America"},{"name_en":"Longobards in Italy. Places of the Power (568-774 A.D.)","longitude":"13.4330555556","latitude":"46.0941666667","states_name_en":"Italy","region_en":"Europe and North America"},{"name_en":"Vineyard Landscape of Piedmont: Langhe-Roero and Monferrato","longitude":"7.9636111111","latitude":"44.6086111111","states_name_en":"Italy","region_en":"Europe and North America"},{"name_en":"Mount Etna","longitude":"14.9966666667","latitude":"37.7561111111","states_name_en":"Italy","region_en":"Europe and North America"},{"name_en":"Arab-Norman Palermo and the Cathedral Churches of Cefalú and Monreale","longitude":"13.3530555556","latitude":"38.1108333333","states_name_en":"Italy","region_en":"Europe and North America"},{"name_en":"Ivrea, industrial city of the 20th century","longitude":"7.8691666667","latitude":"45.4575","states_name_en":"Italy","region_en":"Europe and North America"},{"name_en":"Blue and John Crow Mountains ","longitude":"-76.5711111111","latitude":"18.0775","states_name_en":"Jamaica","region_en":"Latin America and the Caribbean"},{"name_en":"Buddhist Monuments in the Horyu-ji Area","longitude":"135.7333333","latitude":"34.61666667","states_name_en":"Japan","region_en":"Asia and the Pacific"},{"name_en":"Himeji-jo","longitude":"134.7","latitude":"34.83333333","states_name_en":"Japan","region_en":"Asia and the Pacific"},{"name_en":"Yakushima","longitude":"130.5333333","latitude":"30.33333333","states_name_en":"Japan","region_en":"Asia and the Pacific"},{"name_en":"Shirakami-Sanchi","longitude":"140.13","latitude":"40.47","states_name_en":"Japan","region_en":"Asia and the Pacific"},{"name_en":"Historic Monuments of Ancient Kyoto (Kyoto, Uji and Otsu Cities)","longitude":"135.7694444","latitude":"34.98055556","states_name_en":"Japan","region_en":"Asia and the Pacific"},{"name_en":"Historic Villages of Shirakawa-go and Gokayama","longitude":"136.8833333","latitude":"36.4","states_name_en":"Japan","region_en":"Asia and the Pacific"},{"name_en":"Hiroshima Peace Memorial (Genbaku Dome)","longitude":"132.45","latitude":"34.38333333","states_name_en":"Japan","region_en":"Asia and the Pacific"},{"name_en":"Itsukushima Shinto Shrine","longitude":"132.3246389","latitude":"34.29441667","states_name_en":"Japan","region_en":"Asia and the Pacific"},{"name_en":"Historic Monuments of Ancient Nara","longitude":"135.8394444","latitude":"34.67555556","states_name_en":"Japan","region_en":"Asia and the Pacific"},{"name_en":"Shrines and Temples of Nikko","longitude":"139.6105556","latitude":"36.7475","states_name_en":"Japan","region_en":"Asia and the Pacific"},{"name_en":"Gusuku Sites and Related Properties of the Kingdom of Ryukyu","longitude":"127.6827778","latitude":"26.20861111","states_name_en":"Japan","region_en":"Asia and the Pacific"},{"name_en":"Sacred Sites and Pilgrimage Routes in the Kii Mountain Range","longitude":"135.7763889","latitude":"33.83694444","states_name_en":"Japan","region_en":"Asia and the Pacific"},{"name_en":"Shiretoko","longitude":"144.96583","latitude":"43.94944","states_name_en":"Japan","region_en":"Asia and the Pacific"},{"name_en":"Iwami Ginzan Silver Mine and its Cultural Landscape","longitude":"132.435","latitude":"35.1127777777","states_name_en":"Japan","region_en":"Asia and the Pacific"},{"name_en":"Hiraizumi – Temples, Gardens and Archaeological Sites Representing the Buddhist Pure Land","longitude":"141.1077777778","latitude":"39.0011111111","states_name_en":"Japan","region_en":"Asia and the Pacific"},{"name_en":"Ogasawara Islands","longitude":"142.0997222222","latitude":"27.7183333333","states_name_en":"Japan","region_en":"Asia and the Pacific"},{"name_en":"Fujisan, sacred place and source of artistic inspiration","longitude":"138.7275","latitude":"35.3608333333","states_name_en":"Japan","region_en":"Asia and the Pacific"},{"name_en":"Tomioka Silk Mill and Related Sites","longitude":"138.8877777778","latitude":"36.2552777778","states_name_en":"Japan","region_en":"Asia and the Pacific"},{"name_en":"Sites of Japan’s Meiji Industrial Revolution: Iron and Steel, Shipbuilding and Coal Mining","longitude":"131.4122222222","latitude":"34.4305555556","states_name_en":"Japan","region_en":"Asia and the Pacific"},{"name_en":"Hidden Christian Sites in the Nagasaki Region","longitude":"128.9038888889","latitude":"32.8022222222","states_name_en":"Japan","region_en":"Asia and the Pacific"},{"name_en":"Sacred Island of Okinoshima and Associated Sites in the Munakata Region ","longitude":"130.1055555556","latitude":"34.245","states_name_en":"Japan","region_en":"Asia and the Pacific"},{"name_en":"Old City of Jerusalem and its Walls","longitude":"35.21666667","latitude":"31.78333333","states_name_en":"Jerusalem (Site proposed by Jordan)","region_en":"Arab States"},{"name_en":"Petra","longitude":"35.44333","latitude":"30.33056","states_name_en":"Jordan","region_en":"Arab States"},{"name_en":"Quseir Amra","longitude":"36.58583","latitude":"31.80194","states_name_en":"Jordan","region_en":"Arab States"},{"name_en":"Um er-Rasas (Kastrom Mefa'a)","longitude":"35.92056","latitude":"31.50167","states_name_en":"Jordan","region_en":"Arab States"},{"name_en":"Wadi Rum Protected Area","longitude":"35.4338888889","latitude":"29.6397222222","states_name_en":"Jordan","region_en":"Arab States"},{"name_en":"Baptism Site “Bethany Beyond the Jordan” (Al-Maghtas)","longitude":"35.5527777778","latitude":"31.8372222222","states_name_en":"Jordan","region_en":"Arab States"},{"name_en":"Saryarka – Steppe and Lakes of Northern Kazakhstan","longitude":"69.1888888889","latitude":"50.4333333333","states_name_en":"Kazakhstan","region_en":"Asia and the Pacific"},{"name_en":"Mausoleum of Khoja Ahmed Yasawi","longitude":"68.27444444","latitude":"43.29305556","states_name_en":"Kazakhstan","region_en":"Asia and the Pacific"},{"name_en":"Petroglyphs within the Archaeological Landscape of Tamgaly","longitude":"75.535","latitude":"43.80333333","states_name_en":"Kazakhstan","region_en":"Asia and the Pacific"},{"name_en":"Mount Kenya National Park/Natural Forest","longitude":"37.3155555556","latitude":"-0.155","states_name_en":"Kenya","region_en":"Africa"},{"name_en":"Lake Turkana National Parks","longitude":"36.50366667","latitude":"3.051305556","states_name_en":"Kenya","region_en":"Africa"},{"name_en":"Lamu Old Town","longitude":"40.8525","latitude":"-2.284444444","states_name_en":"Kenya","region_en":"Africa"},{"name_en":"Kenya Lake System in the Great Rift Valley","longitude":"36.24","latitude":"-0.4425","states_name_en":"Kenya","region_en":"Africa"},{"name_en":"Sacred Mijikenda Kaya Forests","longitude":"39.5961111111","latitude":"-3.9319444444","states_name_en":"Kenya","region_en":"Africa"},{"name_en":"Fort Jesus, Mombasa","longitude":"39.6794444444","latitude":"-4.0627777778","states_name_en":"Kenya","region_en":"Africa"},{"name_en":"Thimlich Ohinga Archaeological Site","longitude":"34.326107","latitude":"-0.8913380556","states_name_en":"Kenya","region_en":"Africa"},{"name_en":"Phoenix Islands Protected Area","longitude":"-172.8575","latitude":"-3.6497222222","states_name_en":"Kiribati","region_en":"Asia and the Pacific"},{"name_en":"Sulaiman-Too Sacred Mountain","longitude":"72.7827777778","latitude":"40.5311111111","states_name_en":"Kyrgyzstan","region_en":"Asia and the Pacific"},{"name_en":"Town of Luang Prabang","longitude":"102.13333","latitude":"19.88889","states_name_en":"Lao People's Democratic Republic","region_en":"Asia and the Pacific"},{"name_en":"Vat Phou and Associated Ancient Settlements within the Champasak Cultural Landscape","longitude":"105.8222222222","latitude":"14.8483333333","states_name_en":"Lao People's Democratic Republic","region_en":"Asia and the Pacific"},{"name_en":"Historic Centre of Riga","longitude":"24.11667","latitude":"56.95417","states_name_en":"Latvia","region_en":"Europe and North America"},{"name_en":"Anjar","longitude":"35.92972","latitude":"33.72583","states_name_en":"Lebanon","region_en":"Arab States"},{"name_en":"Baalbek","longitude":"36.20494","latitude":"34.00707","states_name_en":"Lebanon","region_en":"Arab States"},{"name_en":"Byblos","longitude":"35.6475","latitude":"34.11917","states_name_en":"Lebanon","region_en":"Arab States"},{"name_en":"Tyre","longitude":"35.19444","latitude":"33.27194","states_name_en":"Lebanon","region_en":"Arab States"},{"name_en":"Ouadi Qadisha (the Holy Valley) and the Forest of the Cedars of God (Horsh Arz el-Rab)","longitude":"36.04889","latitude":"34.24333","states_name_en":"Lebanon","region_en":"Arab States"},{"name_en":"Archaeological Site of Leptis Magna","longitude":"14.29306","latitude":"32.63833","states_name_en":"Libya","region_en":"Arab States"},{"name_en":"Archaeological Site of Sabratha","longitude":"12.485","latitude":"32.80528","states_name_en":"Libya","region_en":"Arab States"},{"name_en":"Archaeological Site of Cyrene","longitude":"21.85833","latitude":"32.825","states_name_en":"Libya","region_en":"Arab States"},{"name_en":"Rock-Art Sites of Tadrart Acacus","longitude":"10.33333","latitude":"24.83333","states_name_en":"Libya","region_en":"Arab States"},{"name_en":"Old Town of Ghadamès","longitude":"9.5","latitude":"30.13333333","states_name_en":"Libya","region_en":"Arab States"},{"name_en":"Vilnius Historic Centre","longitude":"25.29306","latitude":"54.68667","states_name_en":"Lithuania","region_en":"Europe and North America"},{"name_en":"Kernavė  Archaeological Site (Cultural Reserve of Kernavė)","longitude":"24.83055556","latitude":"54.88777778","states_name_en":"Lithuania","region_en":"Europe and North America"},{"name_en":"City of Luxembourg: its Old Quarters and Fortifications","longitude":"6.13333","latitude":"49.61","states_name_en":"Luxembourg","region_en":"Europe and North America"},{"name_en":"Tsingy de Bemaraha Strict Nature Reserve","longitude":"44.75","latitude":"-18.66667","states_name_en":"Madagascar","region_en":"Africa"},{"name_en":"Royal Hill of Ambohimanga","longitude":"47.56278","latitude":"-18.75917","states_name_en":"Madagascar","region_en":"Africa"},{"name_en":"Rainforests of the Atsinanana","longitude":"49.7025","latitude":"-14.4597222222","states_name_en":"Madagascar","region_en":"Africa"},{"name_en":"Lake Malawi National Park","longitude":"34.88333","latitude":"-14.03333","states_name_en":"Malawi","region_en":"Africa"},{"name_en":"Chongoni Rock-Art Area","longitude":"34.2791666666","latitude":"-14.2933333333","states_name_en":"Malawi","region_en":"Africa"},{"name_en":"Kinabalu Park","longitude":"116.5","latitude":"6.25","states_name_en":"Malaysia","region_en":"Asia and the Pacific"},{"name_en":"Gunung Mulu National Park","longitude":"114.91667","latitude":"4.13333","states_name_en":"Malaysia","region_en":"Asia and the Pacific"},{"name_en":"Melaka and George Town, Historic Cities of the Straits of Malacca","longitude":"100.3458333333","latitude":"5.4213888889","states_name_en":"Malaysia","region_en":"Asia and the Pacific"},{"name_en":"Archaeological Heritage of the Lenggong Valley","longitude":"100.9723277778","latitude":"5.0679083333","states_name_en":"Malaysia","region_en":"Asia and the Pacific"},{"name_en":"Old Towns of Djenné","longitude":"-4.555","latitude":"13.90639","states_name_en":"Mali","region_en":"Africa"},{"name_en":"Timbuktu","longitude":"-2.999444444","latitude":"16.77333333","states_name_en":"Mali","region_en":"Africa"},{"name_en":"Cliff of Bandiagara (Land of the Dogons)","longitude":"-3.41667","latitude":"14.33333","states_name_en":"Mali","region_en":"Africa"},{"name_en":"Tomb of Askia","longitude":"-0.04456","latitude":"16.2898","states_name_en":"Mali","region_en":"Africa"},{"name_en":"Ħal Saflieni Hypogeum","longitude":"14.50739","latitude":"35.87134","states_name_en":"Malta","region_en":"Europe and North America"},{"name_en":"City of Valletta","longitude":"14.51444","latitude":"35.90056","states_name_en":"Malta","region_en":"Europe and North America"},{"name_en":"Megalithic Temples of Malta","longitude":"14.26947","latitude":"36.04908","states_name_en":"Malta","region_en":"Europe and North America"},{"name_en":"Bikini Atoll Nuclear Test Site","longitude":"165.3805555556","latitude":"11.6","states_name_en":"Marshall Islands","region_en":"Asia and the Pacific"},{"name_en":"Banc d'Arguin National Park","longitude":"-16.10889","latitude":"20.23472","states_name_en":"Mauritania","region_en":"Arab States"},{"name_en":"Ancient <I>Ksour</I> of Ouadane, Chinguetti, Tichitt and Oualata","longitude":"-11.62361","latitude":"20.92889","states_name_en":"Mauritania","region_en":"Arab States"},{"name_en":"Aapravasi Ghat","longitude":"57.5031666666","latitude":"-20.1586388889","states_name_en":"Mauritius","region_en":"Africa"},{"name_en":"Le Morne Cultural Landscape","longitude":"57.3283333333","latitude":"-20.4519444444","states_name_en":"Mauritius","region_en":"Africa"},{"name_en":"Sian Ka'an","longitude":"-87.79167","latitude":"19.38333","states_name_en":"Mexico","region_en":"Latin America and the Caribbean"},{"name_en":"Pre-Hispanic City and National Park of Palenque","longitude":"-92.05","latitude":"17.48333","states_name_en":"Mexico","region_en":"Latin America and the Caribbean"},{"name_en":"Historic Centre of Mexico City and Xochimilco","longitude":"-99.13278","latitude":"19.41833","states_name_en":"Mexico","region_en":"Latin America and the Caribbean"},{"name_en":"Pre-Hispanic City of Teotihuacan","longitude":"-98.84167","latitude":"19.69167","states_name_en":"Mexico","region_en":"Latin America and the Caribbean"},{"name_en":"Historic Centre of Oaxaca and Archaeological Site of Monte Albán","longitude":"-96.72167","latitude":"17.06194","states_name_en":"Mexico","region_en":"Latin America and the Caribbean"},{"name_en":"Historic Centre of Puebla","longitude":"-98.20833","latitude":"19.04722","states_name_en":"Mexico","region_en":"Latin America and the Caribbean"},{"name_en":"Historic Town of Guanajuato and Adjacent Mines","longitude":"-101.25556","latitude":"21.01694","states_name_en":"Mexico","region_en":"Latin America and the Caribbean"},{"name_en":"Pre-Hispanic City of Chichen-Itza","longitude":"-88.6","latitude":"20.66667","states_name_en":"Mexico","region_en":"Latin America and the Caribbean"},{"name_en":"Whale Sanctuary of El Vizcaino","longitude":"-114.22778","latitude":"27.79222","states_name_en":"Mexico","region_en":"Latin America and the Caribbean"},{"name_en":"Archaeological Zone of Paquimé, Casas Grandes","longitude":"-107.95556","latitude":"30.37583","states_name_en":"Mexico","region_en":"Latin America and the Caribbean"},{"name_en":"Historic Centre of Morelia","longitude":"-101.19167","latitude":"19.70444","states_name_en":"Mexico","region_en":"Latin America and the Caribbean"},{"name_en":"El Tajin, Pre-Hispanic City","longitude":"-97.3775","latitude":"20.47639","states_name_en":"Mexico","region_en":"Latin America and the Caribbean"},{"name_en":"Historic Centre of Zacatecas","longitude":"-102.55556","latitude":"22.76667","states_name_en":"Mexico","region_en":"Latin America and the Caribbean"},{"name_en":"Earliest 16th-Century Monasteries on the Slopes of Popocatepetl","longitude":"-98.89778","latitude":"18.93472","states_name_en":"Mexico","region_en":"Latin America and the Caribbean"},{"name_en":"Rock Paintings of the Sierra de San Francisco","longitude":"-112.91611","latitude":"27.65556","states_name_en":"Mexico","region_en":"Latin America and the Caribbean"},{"name_en":"Pre-Hispanic Town of Uxmal","longitude":"-89.77027778","latitude":"20.36166667","states_name_en":"Mexico","region_en":"Latin America and the Caribbean"},{"name_en":"Historic Monuments Zone of Querétaro","longitude":"-100.3666667","latitude":"20.58333333","states_name_en":"Mexico","region_en":"Latin America and the Caribbean"},{"name_en":"Hospicio Cabañas, Guadalajara","longitude":"-103.3397222","latitude":"20.67388889","states_name_en":"Mexico","region_en":"Latin America and the Caribbean"},{"name_en":"Historic Monuments Zone of Tlacotalpan","longitude":"-95.65833333","latitude":"18.60833333","states_name_en":"Mexico","region_en":"Latin America and the Caribbean"},{"name_en":"Historic Fortified Town of Campeche","longitude":"-90.53722","latitude":"19.84639","states_name_en":"Mexico","region_en":"Latin America and the Caribbean"},{"name_en":"Archaeological Monuments Zone of Xochicalco","longitude":"-99.275","latitude":"18.81028","states_name_en":"Mexico","region_en":"Latin America and the Caribbean"},{"name_en":"Ancient Maya City and Protected Tropical Forests of Calakmul, Campeche","longitude":"-89.7372833333","latitude":"18.0530277778","states_name_en":"Mexico","region_en":"Latin America and the Caribbean"},{"name_en":"Franciscan Missions in the Sierra Gorda of Querétaro","longitude":"-99.46411111","latitude":"21.20438889","states_name_en":"Mexico","region_en":"Latin America and the Caribbean"},{"name_en":"Luis Barragán House and Studio","longitude":"-99.19833333","latitude":"19.41833333","states_name_en":"Mexico","region_en":"Latin America and the Caribbean"},{"name_en":"Islands and Protected Areas of the Gulf of California","longitude":"-112.54583","latitude":"27.62667","states_name_en":"Mexico","region_en":"Latin America and the Caribbean"},{"name_en":"Agave Landscape and Ancient Industrial Facilities of Tequila","longitude":"-103.7786111111","latitude":"20.8630555555","states_name_en":"Mexico","region_en":"Latin America and the Caribbean"},{"name_en":"Central University City Campus of the <i>Universidad Nacional Autónoma de México</i> (UNAM)","longitude":"-99.1880555555","latitude":"19.3322222222","states_name_en":"Mexico","region_en":"Latin America and the Caribbean"},{"name_en":"Protective town of San Miguel and the Sanctuary of Jesús Nazareno de Atotonilco","longitude":"-100.7463888889","latitude":"20.9144444444","states_name_en":"Mexico","region_en":"Latin America and the Caribbean"},{"name_en":"Monarch Butterfly Biosphere Reserve","longitude":"-100.2416666667","latitude":"19.6063888889","states_name_en":"Mexico","region_en":"Latin America and the Caribbean"},{"name_en":"Camino Real de Tierra Adentro","longitude":"-102.3791666667","latitude":"22.6080555556","states_name_en":"Mexico","region_en":"Latin America and the Caribbean"},{"name_en":"Prehistoric Caves of Yagul and Mitla in the Central Valley of Oaxaca","longitude":"-96.4211111111","latitude":"16.9508333333","states_name_en":"Mexico","region_en":"Latin America and the Caribbean"},{"name_en":"El Pinacate and Gran Desierto de Altar Biosphere Reserve","longitude":"-113.9166666667","latitude":"32.0","states_name_en":"Mexico","region_en":"Latin America and the Caribbean"},{"name_en":"Aqueduct of Padre Tembleque Hydraulic System","longitude":"-98.6625666667","latitude":"19.8352777778","states_name_en":"Mexico","region_en":"Latin America and the Caribbean"},{"name_en":"Archipiélago de Revillagigedo","longitude":"-110.9752777778","latitude":"18.7880555556","states_name_en":"Mexico","region_en":"Latin America and the Caribbean"},{"name_en":"Tehuacán-Cuicatlán Valley: originary habitat of Mesoamerica","longitude":"-97.1871527778","latitude":"17.9899611111","states_name_en":"Mexico","region_en":"Latin America and the Caribbean"},{"name_en":"Nan Madol: Ceremonial Centre of Eastern Micronesia","longitude":"158.3308333333","latitude":"6.8397222222","states_name_en":"Micronesia (Federated States of)","region_en":"Asia and the Pacific"},{"name_en":"Orkhon Valley Cultural Landscape","longitude":"102.8313889","latitude":"47.55666667","states_name_en":"Mongolia","region_en":"Asia and the Pacific"},{"name_en":"Petroglyphic Complexes of the Mongolian Altai","longitude":"88.3952777778","latitude":"49.3338888889","states_name_en":"Mongolia","region_en":"Asia and the Pacific"},{"name_en":"Great Burkhan Khaldun Mountain and its surrounding sacred landscape","longitude":"109.0093277778","latitude":"48.7619777778","states_name_en":"Mongolia","region_en":"Asia and the Pacific"},{"name_en":"Durmitor National Park","longitude":"19.0166","latitude":"43.133","states_name_en":"Montenegro","region_en":"Europe and North America"},{"name_en":"Natural and Culturo-Historical Region of Kotor","longitude":"18.7","latitude":"42.48333","states_name_en":"Montenegro","region_en":"Europe and North America"},{"name_en":"Medina of Fez","longitude":"-4.97778","latitude":"34.06111","states_name_en":"Morocco","region_en":"Arab States"},{"name_en":"Medina of Marrakesh","longitude":"-7.98667","latitude":"31.63139","states_name_en":"Morocco","region_en":"Arab States"},{"name_en":"Ksar of Ait-Ben-Haddou","longitude":"-7.12889","latitude":"31.04722","states_name_en":"Morocco","region_en":"Arab States"},{"name_en":"Medina of Essaouira (formerly Mogador)","longitude":"-9.7703055556","latitude":"31.5141111111","states_name_en":"Morocco","region_en":"Arab States"},{"name_en":"Historic City of Meknes","longitude":"-5.55833","latitude":"33.88333","states_name_en":"Morocco","region_en":"Arab States"},{"name_en":"Archaeological Site of Volubilis","longitude":"-5.55694","latitude":"34.07389","states_name_en":"Morocco","region_en":"Arab States"},{"name_en":"Medina of Tétouan (formerly known as Titawin)","longitude":"-5.36667","latitude":"35.57083","states_name_en":"Morocco","region_en":"Arab States"},{"name_en":"Portuguese City of Mazagan (El Jadida)","longitude":"-8.50194","latitude":"33.25667","states_name_en":"Morocco","region_en":"Arab States"},{"name_en":"Rabat, Modern Capital and Historic City: a Shared Heritage","longitude":"-6.8227777778","latitude":"34.0241666667","states_name_en":"Morocco","region_en":"Arab States"},{"name_en":"Island of Mozambique","longitude":"40.73583","latitude":"-15.03417","states_name_en":"Mozambique","region_en":"Africa"},{"name_en":"Pyu Ancient Cities","longitude":"95.8186111111","latitude":"22.47","states_name_en":"Myanmar","region_en":"Asia and the Pacific"},{"name_en":"Twyfelfontein or /Ui-//aes","longitude":"14.3725833333","latitude":"-20.5955833333","states_name_en":"Namibia","region_en":"Africa"},{"name_en":"Namib Sand Sea","longitude":"15.4077777778","latitude":"-24.8852777778","states_name_en":"Namibia","region_en":"Africa"},{"name_en":"Sagarmatha National Park","longitude":"86.91306","latitude":"27.96528","states_name_en":"Nepal","region_en":"Asia and the Pacific"},{"name_en":"Kathmandu Valley ","longitude":"85.30858","latitude":"27.70395","states_name_en":"Nepal","region_en":"Asia and the Pacific"},{"name_en":"Chitwan National Park","longitude":"84.33333","latitude":"27.5","states_name_en":"Nepal","region_en":"Asia and the Pacific"},{"name_en":"Lumbini, the Birthplace of the Lord Buddha","longitude":"83.27611","latitude":"27.46889","states_name_en":"Nepal","region_en":"Asia and the Pacific"},{"name_en":"Schokland and Surroundings","longitude":"5.771666667","latitude":"52.63861111","states_name_en":"Netherlands","region_en":"Europe and North America"},{"name_en":"Defence Line of Amsterdam","longitude":"4.893055556","latitude":"52.37444444","states_name_en":"Netherlands","region_en":"Europe and North America"},{"name_en":"Mill Network at Kinderdijk-Elshout","longitude":"4.649444444","latitude":"51.8825","states_name_en":"Netherlands","region_en":"Europe and North America"},{"name_en":"Historic Area of Willemstad, Inner City and Harbour, Curaçao","longitude":"-68.90222","latitude":"12.10194","states_name_en":"Netherlands","region_en":"Europe and North America"},{"name_en":"Ir.D.F. Woudagemaal (D.F. Wouda Steam Pumping Station)","longitude":"5.67889","latitude":"52.84583","states_name_en":"Netherlands","region_en":"Europe and North America"},{"name_en":"Droogmakerij de Beemster (Beemster Polder)","longitude":"4.911111111","latitude":"52.54888889","states_name_en":"Netherlands","region_en":"Europe and North America"},{"name_en":"Rietveld Schröderhuis (Rietveld Schröder House)","longitude":"5.1475555556","latitude":"52.0853333333","states_name_en":"Netherlands","region_en":"Europe and North America"},{"name_en":"Seventeenth-Century Canal Ring Area of Amsterdam inside the Singelgracht","longitude":"4.8877777778","latitude":"52.365","states_name_en":"Netherlands","region_en":"Europe and North America"},{"name_en":"Van Nellefabriek","longitude":"4.4183333333","latitude":"51.9233333333","states_name_en":"Netherlands","region_en":"Europe and North America"},{"name_en":"Tongariro National Park","longitude":"175.5622222","latitude":"-39.29083333","states_name_en":"New Zealand","region_en":"Asia and the Pacific"},{"name_en":"Te Wahipounamu – South West New Zealand","longitude":"167.3196111","latitude":"-45.03602778","states_name_en":"New Zealand","region_en":"Asia and the Pacific"},{"name_en":"New Zealand Sub-Antarctic Islands","longitude":"166.1044444","latitude":"-50.75","states_name_en":"New Zealand","region_en":"Asia and the Pacific"},{"name_en":"Ruins of León Viejo","longitude":"-86.61028","latitude":"12.39722","states_name_en":"Nicaragua","region_en":"Latin America and the Caribbean"},{"name_en":"León Cathedral","longitude":"-86.8780555556","latitude":"12.435","states_name_en":"Nicaragua","region_en":"Latin America and the Caribbean"},{"name_en":"Air and Ténéré Natural Reserves","longitude":"9.0","latitude":"18.0","states_name_en":"Niger","region_en":"Africa"},{"name_en":"Historic Centre of Agadez","longitude":"7.9913888889","latitude":"16.9736111111","states_name_en":"Niger","region_en":"Africa"},{"name_en":"Sukur Cultural Landscape","longitude":"13.57194","latitude":"10.74056","states_name_en":"Nigeria","region_en":"Africa"},{"name_en":"Osun-Osogbo Sacred Grove","longitude":"4.55222","latitude":"7.75556","states_name_en":"Nigeria","region_en":"Africa"},{"name_en":"Natural and Cultural Heritage of the Ohrid region","longitude":"20.81333","latitude":"41.11806","states_name_en":"North Macedonia","region_en":"Europe and North America"},{"name_en":"Røros Mining Town and the Circumference","longitude":"11.3855555556","latitude":"62.5738888889","states_name_en":"Norway","region_en":"Europe and North America"},{"name_en":"Urnes Stave Church","longitude":"7.33333","latitude":"61.3","states_name_en":"Norway","region_en":"Europe and North America"},{"name_en":"Bryggen","longitude":"5.32306","latitude":"60.39722","states_name_en":"Norway","region_en":"Europe and North America"},{"name_en":"Rock Art of Alta","longitude":"23.18333","latitude":"69.95","states_name_en":"Norway","region_en":"Europe and North America"},{"name_en":"Vegaøyan – The Vega Archipelago","longitude":"11.75","latitude":"65.61667","states_name_en":"Norway","region_en":"Europe and North America"},{"name_en":"West Norwegian Fjords – Geirangerfjord and Nærøyfjord","longitude":"7.16667","latitude":"62.11667","states_name_en":"Norway","region_en":"Europe and North America"},{"name_en":"Rjukan-Notodden Industrial Heritage Site","longitude":"8.5936111111","latitude":"59.8786111111","states_name_en":"Norway","region_en":"Europe and North America"},{"name_en":"Bahla Fort","longitude":"57.30111","latitude":"22.96417","states_name_en":"Oman","region_en":"Arab States"},{"name_en":"Archaeological Sites of Bat, Al-Khutm and Al-Ayn","longitude":"56.745","latitude":"23.26986","states_name_en":"Oman","region_en":"Arab States"},{"name_en":"Land of Frankincense","longitude":"53.64759","latitude":"18.25333","states_name_en":"Oman","region_en":"Arab States"},{"name_en":"<i>Aflaj</i> Irrigation Systems of Oman","longitude":"57.5360555555","latitude":"22.9988888889","states_name_en":"Oman","region_en":"Arab States"},{"name_en":"Ancient City of Qalhat","longitude":"59.3781111111","latitude":"22.6952222222","states_name_en":"Oman","region_en":"Arab States"},{"name_en":"Archaeological Ruins at Moenjodaro","longitude":"68.13888889","latitude":"27.32916667","states_name_en":"Pakistan","region_en":"Asia and the Pacific"},{"name_en":"Taxila","longitude":"72.8875","latitude":"33.77916667","states_name_en":"Pakistan","region_en":"Asia and the Pacific"},{"name_en":"Buddhist Ruins of Takht-i-Bahi and Neighbouring City Remains at Sahr-i-Bahlol","longitude":"71.94583333","latitude":"34.32083333","states_name_en":"Pakistan","region_en":"Asia and the Pacific"},{"name_en":"Historical Monuments at Makli, Thatta","longitude":"67.9","latitude":"24.76666667","states_name_en":"Pakistan","region_en":"Asia and the Pacific"},{"name_en":"Fort and Shalamar Gardens in Lahore","longitude":"74.30972222","latitude":"31.59027778","states_name_en":"Pakistan","region_en":"Asia and the Pacific"},{"name_en":"Rohtas Fort","longitude":"73.58888889","latitude":"32.9625","states_name_en":"Pakistan","region_en":"Asia and the Pacific"},{"name_en":"Rock Islands Southern Lagoon","longitude":"134.3525","latitude":"7.246925","states_name_en":"Palau","region_en":"Asia and the Pacific"},{"name_en":"Birthplace of Jesus: Church of the Nativity and the Pilgrimage Route, Bethlehem","longitude":"35.2075","latitude":"31.7043527778","states_name_en":"Palestine","region_en":"Arab States"},{"name_en":"Palestine: Land of Olives and Vines – Cultural Landscape of Southern Jerusalem, Battir","longitude":"35.1305555556","latitude":"31.7197222222","states_name_en":"Palestine","region_en":"Arab States"},{"name_en":"Hebron/Al-Khalil Old Town","longitude":"35.1088888889","latitude":"31.5241666667","states_name_en":"Palestine","region_en":"Arab States"},{"name_en":"Fortifications on the Caribbean Side of Panama: Portobelo-San Lorenzo","longitude":"-79.65583333","latitude":"9.553888889","states_name_en":"Panama","region_en":"Latin America and the Caribbean"},{"name_en":"Darien National Park","longitude":"-77.54722222","latitude":"7.736111111","states_name_en":"Panama","region_en":"Latin America and the Caribbean"},{"name_en":"Archaeological Site of Panamá Viejo and Historic District of Panamá","longitude":"-79.54055556","latitude":"8.951111111","states_name_en":"Panama","region_en":"Latin America and the Caribbean"},{"name_en":"Coiba National Park and its Special Zone of Marine Protection","longitude":"-81.766","latitude":"7.433","states_name_en":"Panama","region_en":"Latin America and the Caribbean"},{"name_en":"Kuk Early Agricultural Site","longitude":"144.3317222222","latitude":"-5.7837111111","states_name_en":"Papua New Guinea","region_en":"Asia and the Pacific"},{"name_en":"Jesuit Missions of La Santísima Trinidad de Paraná and Jesús de Tavarangue","longitude":"-55.7","latitude":"-27.13333","states_name_en":"Paraguay","region_en":"Latin America and the Caribbean"},{"name_en":"City of Cuzco","longitude":"-71.98333","latitude":"-13.52222","states_name_en":"Peru","region_en":"Latin America and the Caribbean"},{"name_en":"Historic Sanctuary of Machu Picchu","longitude":"-72.58333333","latitude":"-13.11666667","states_name_en":"Peru","region_en":"Latin America and the Caribbean"},{"name_en":"Chavin (Archaeological Site)","longitude":"-77.1784535027","latitude":"-9.5927725444","states_name_en":"Peru","region_en":"Latin America and the Caribbean"},{"name_en":"Huascarán National Park","longitude":"-77.4","latitude":"-9.33333","states_name_en":"Peru","region_en":"Latin America and the Caribbean"},{"name_en":"Chan Chan Archaeological Zone","longitude":"-79.08333","latitude":"-8.1","states_name_en":"Peru","region_en":"Latin America and the Caribbean"},{"name_en":"Manú National Park","longitude":"-71.75","latitude":"-12.25","states_name_en":"Peru","region_en":"Latin America and the Caribbean"},{"name_en":"Historic Centre of Lima","longitude":"-77.04306","latitude":"-12.05139","states_name_en":"Peru","region_en":"Latin America and the Caribbean"},{"name_en":"Río Abiseo National Park","longitude":"-77.25","latitude":"-7.75","states_name_en":"Peru","region_en":"Latin America and the Caribbean"},{"name_en":"Lines and Geoglyphs of Nasca and Palpa","longitude":"-75.14861","latitude":"-14.72583","states_name_en":"Peru","region_en":"Latin America and the Caribbean"},{"name_en":"Historical Centre of the City of Arequipa","longitude":"-71.53333333","latitude":"-16.4","states_name_en":"Peru","region_en":"Latin America and the Caribbean"},{"name_en":"Sacred City of Caral-Supe","longitude":"-77.5213888889","latitude":"-10.8916666667","states_name_en":"Peru","region_en":"Latin America and the Caribbean"},{"name_en":"Historic City of Vigan","longitude":"120.3875","latitude":"17.575","states_name_en":"Philippines","region_en":"Asia and the Pacific"},{"name_en":"Puerto-Princesa Subterranean River National Park","longitude":"118.9166667","latitude":"10.16666667","states_name_en":"Philippines","region_en":"Asia and the Pacific"},{"name_en":"Tubbataha Reefs Natural Park","longitude":"119.8675","latitude":"8.9533333333","states_name_en":"Philippines","region_en":"Asia and the Pacific"},{"name_en":"Baroque Churches of the Philippines","longitude":"120.97","latitude":"14.59","states_name_en":"Philippines","region_en":"Asia and the Pacific"},{"name_en":"Rice Terraces of the Philippine Cordilleras","longitude":"121.13667","latitude":"16.93389","states_name_en":"Philippines","region_en":"Asia and the Pacific"},{"name_en":"Mount Hamiguitan Range Wildlife Sanctuary","longitude":"126.1734305556","latitude":"6.7171694444","states_name_en":"Philippines","region_en":"Asia and the Pacific"},{"name_en":"Historic Centre of Kraków","longitude":"19.9372222222","latitude":"50.0613888889","states_name_en":"Poland","region_en":"Europe and North America"},{"name_en":"Historic Centre of Warsaw","longitude":"21.01167","latitude":"52.26639","states_name_en":"Poland","region_en":"Europe and North America"},{"name_en":"Auschwitz Birkenau <br /><small>German Nazi Concentration and Extermination Camp (1940-1945)</small>","longitude":"19.175","latitude":"50.0388888889","states_name_en":"Poland","region_en":"Europe and North America"},{"name_en":"Wieliczka and Bochnia Royal Salt Mines","longitude":"20.0638888889","latitude":"49.9791666667","states_name_en":"Poland","region_en":"Europe and North America"},{"name_en":"Old City of Zamość","longitude":"23.26667","latitude":"50.71667","states_name_en":"Poland","region_en":"Europe and North America"},{"name_en":"Medieval Town of Toruń","longitude":"18.61944","latitude":"53.01","states_name_en":"Poland","region_en":"Europe and North America"},{"name_en":"Castle of the Teutonic Order in Malbork","longitude":"19.03333333","latitude":"54.04166667","states_name_en":"Poland","region_en":"Europe and North America"},{"name_en":"Kalwaria Zebrzydowska: the Mannerist Architectural and Park Landscape Complex and Pilgrimage Park","longitude":"19.66666667","latitude":"49.86666667","states_name_en":"Poland","region_en":"Europe and North America"},{"name_en":"Wooden Churches of Southern Małopolska","longitude":"21.23333333","latitude":"49.75","states_name_en":"Poland","region_en":"Europe and North America"},{"name_en":"Churches of Peace in Jawor and Świdnica","longitude":"16.19594444","latitude":"51.05427778","states_name_en":"Poland","region_en":"Europe and North America"},{"name_en":"Centennial Hall in Wrocław","longitude":"17.0770138888","latitude":"51.1069472222","states_name_en":"Poland","region_en":"Europe and North America"},{"name_en":"Tarnowskie Góry Lead-Silver-Zinc Mine and its Underground Water Management System","longitude":"18.8512277778","latitude":"50.4426972222","states_name_en":"Poland","region_en":"Europe and North America"},{"name_en":"Central Zone of the Town of Angra do Heroismo in the Azores","longitude":"-27.22","latitude":"38.655","states_name_en":"Portugal","region_en":"Europe and North America"},{"name_en":"Monastery of the Hieronymites and Tower of Belém in Lisbon","longitude":"-9.21583","latitude":"38.69194","states_name_en":"Portugal","region_en":"Europe and North America"},{"name_en":"Monastery of Batalha","longitude":"-8.82694","latitude":"39.65778","states_name_en":"Portugal","region_en":"Europe and North America"},{"name_en":"Convent of Christ in Tomar","longitude":"-8.4175","latitude":"39.60472","states_name_en":"Portugal","region_en":"Europe and North America"},{"name_en":"Historic Centre of Évora","longitude":"-7.90778","latitude":"38.57306","states_name_en":"Portugal","region_en":"Europe and North America"},{"name_en":"Monastery of Alcobaça","longitude":"-8.97667","latitude":"39.55","states_name_en":"Portugal","region_en":"Europe and North America"},{"name_en":"Cultural Landscape of Sintra","longitude":"-9.41667","latitude":"38.78333","states_name_en":"Portugal","region_en":"Europe and North America"},{"name_en":"Historic Centre of Oporto, Luiz I Bridge and Monastery of Serra do Pilar ","longitude":"-8.616666667","latitude":"41.14166667","states_name_en":"Portugal","region_en":"Europe and North America"},{"name_en":"Laurisilva of Madeira","longitude":"-17.0","latitude":"32.76666667","states_name_en":"Portugal","region_en":"Europe and North America"},{"name_en":"Historic Centre of Guimarães","longitude":"-8.292803","latitude":"41.443731","states_name_en":"Portugal","region_en":"Europe and North America"},{"name_en":"Alto Douro Wine Region","longitude":"-7.798888889","latitude":"41.10166667","states_name_en":"Portugal","region_en":"Europe and North America"},{"name_en":"Landscape of the Pico Island Vineyard Culture","longitude":"-28.54116667","latitude":"38.51344444","states_name_en":"Portugal","region_en":"Europe and North America"},{"name_en":"Garrison Border Town of Elvas and its Fortifications","longitude":"-7.1633222222","latitude":"38.8806194444","states_name_en":"Portugal","region_en":"Europe and North America"},{"name_en":"University of Coimbra – Alta and Sofia","longitude":"-8.425775","latitude":"40.2078111111","states_name_en":"Portugal","region_en":"Europe and North America"},{"name_en":"Al Zubarah Archaeological Site","longitude":"51.0297222222","latitude":"25.9780555556","states_name_en":"Qatar","region_en":"Arab States"},{"name_en":"Seokguram Grotto and Bulguksa Temple","longitude":"129.35","latitude":"35.78333333","states_name_en":"Republic of Korea","region_en":"Asia and the Pacific"},{"name_en":"Haeinsa Temple Janggyeong Panjeon, the Depositories for the <I>Tripitaka Koreana</I> Woodblocks","longitude":"128.1","latitude":"35.8","states_name_en":"Republic of Korea","region_en":"Asia and the Pacific"},{"name_en":"Jongmyo Shrine","longitude":"126.98333","latitude":"37.55","states_name_en":"Republic of Korea","region_en":"Asia and the Pacific"},{"name_en":"Changdeokgung Palace Complex","longitude":"126.9833333","latitude":"37.55","states_name_en":"Republic of Korea","region_en":"Asia and the Pacific"},{"name_en":"Hwaseong Fortress","longitude":"127.00833","latitude":"37.27222","states_name_en":"Republic of Korea","region_en":"Asia and the Pacific"},{"name_en":"Gyeongju Historic Areas","longitude":"129.22667","latitude":"35.78889","states_name_en":"Republic of Korea","region_en":"Asia and the Pacific"},{"name_en":"Gochang, Hwasun and Ganghwa Dolmen Sites","longitude":"126.92917","latitude":"34.96667","states_name_en":"Republic of Korea","region_en":"Asia and the Pacific"},{"name_en":"Jeju Volcanic Island and Lava Tubes","longitude":"126.7202777777","latitude":"33.4688888889","states_name_en":"Republic of Korea","region_en":"Asia and the Pacific"},{"name_en":"Royal Tombs of the Joseon Dynasty","longitude":"128.4527777778","latitude":"37.1972222222","states_name_en":"Republic of Korea","region_en":"Asia and the Pacific"},{"name_en":"Historic Villages of Korea: Hahoe and Yangdong","longitude":"128.5166666667","latitude":"36.5391666667","states_name_en":"Republic of Korea","region_en":"Asia and the Pacific"},{"name_en":"Namhansanseong","longitude":"127.1811111111","latitude":"37.4788888889","states_name_en":"Republic of Korea","region_en":"Asia and the Pacific"},{"name_en":"Baekje Historic Areas","longitude":"127.1272222222","latitude":"36.4619444444","states_name_en":"Republic of Korea","region_en":"Asia and the Pacific"},{"name_en":"Sansa, Buddhist Mountain Monasteries in Korea","longitude":"127.8333333333","latitude":"36.5419444444","states_name_en":"Republic of Korea","region_en":"Asia and the Pacific"},{"name_en":"Danube Delta","longitude":"29.5","latitude":"45.08333","states_name_en":"Romania","region_en":"Europe and North America"},{"name_en":"Villages with Fortified Churches in Transylvania","longitude":"24.77305556","latitude":"46.13583333","states_name_en":"Romania","region_en":"Europe and North America"},{"name_en":"Monastery of Horezu","longitude":"24.01666667","latitude":"45.18333333","states_name_en":"Romania","region_en":"Europe and North America"},{"name_en":"Churches of Moldavia","longitude":"25.7127777778","latitude":"47.7783333333","states_name_en":"Romania","region_en":"Europe and North America"},{"name_en":"Historic Centre of Sighişoara","longitude":"24.79222222","latitude":"46.21777778","states_name_en":"Romania","region_en":"Europe and North America"},{"name_en":"Wooden Churches of Maramureş","longitude":"24.05583333","latitude":"47.82083333","states_name_en":"Romania","region_en":"Europe and North America"},{"name_en":"Dacian Fortresses of the Orastie Mountains","longitude":"23.31194444","latitude":"45.62305556","states_name_en":"Romania","region_en":"Europe and North America"},{"name_en":"Historic Centre of Saint Petersburg and Related Groups of Monuments","longitude":"30.31833","latitude":"59.95","states_name_en":"Russian Federation","region_en":"Europe and North America"},{"name_en":"Kizhi Pogost","longitude":"35.2275","latitude":"62.07138889","states_name_en":"Russian Federation","region_en":"Europe and North America"},{"name_en":"Kremlin and Red Square, Moscow","longitude":"37.62972","latitude":"55.74583","states_name_en":"Russian Federation","region_en":"Europe and North America"},{"name_en":"Historic Monuments of Novgorod and Surroundings","longitude":"31.28333","latitude":"58.53333","states_name_en":"Russian Federation","region_en":"Europe and North America"},{"name_en":"Cultural and Historic Ensemble of the Solovetsky Islands","longitude":"35.66666667","latitude":"65.08333333","states_name_en":"Russian Federation","region_en":"Europe and North America"},{"name_en":"White Monuments of Vladimir and Suzdal","longitude":"40.41666667","latitude":"56.15","states_name_en":"Russian Federation","region_en":"Europe and North America"},{"name_en":"Church of the Ascension, Kolomenskoye","longitude":"37.67389","latitude":"55.65556","states_name_en":"Russian Federation","region_en":"Europe and North America"},{"name_en":"Architectural Ensemble of the Trinity Sergius Lavra in Sergiev Posad","longitude":"38.1312","latitude":"56.31035","states_name_en":"Russian Federation","region_en":"Europe and North America"},{"name_en":"Virgin Komi Forests","longitude":"58.9525","latitude":"63.6258333333","states_name_en":"Russian Federation","region_en":"Europe and North America"},{"name_en":"Lake Baikal","longitude":"107.6625","latitude":"53.17361111","states_name_en":"Russian Federation","region_en":"Europe and North America"},{"name_en":"Volcanoes of Kamchatka","longitude":"158.5","latitude":"56.33333333","states_name_en":"Russian Federation","region_en":"Europe and North America"},{"name_en":"Central Sikhote-Alin","longitude":"136.6611111111","latitude":"46.6833333333","states_name_en":"Russian Federation","region_en":"Europe and North America"},{"name_en":"Golden Mountains of Altai","longitude":"86.0","latitude":"50.46666667","states_name_en":"Russian Federation","region_en":"Europe and North America"},{"name_en":"Western Caucasus","longitude":"40.0","latitude":"44.0","states_name_en":"Russian Federation","region_en":"Europe and North America"},{"name_en":"Historic and Architectural Complex of the Kazan Kremlin","longitude":"49.095","latitude":"55.79111111","states_name_en":"Russian Federation","region_en":"Europe and North America"},{"name_en":"Bolgar Historical and Archaeological Complex","longitude":"49.0563888889","latitude":"54.9788888889","states_name_en":"Russian Federation","region_en":"Europe and North America"},{"name_en":"Ensemble of the Ferapontov Monastery","longitude":"38.56666667","latitude":"59.95","states_name_en":"Russian Federation","region_en":"Europe and North America"},{"name_en":"Natural System of Wrangel Island Reserve","longitude":"-179.7152778","latitude":"71.18888889","states_name_en":"Russian Federation","region_en":"Europe and North America"},{"name_en":"Citadel, Ancient City and Fortress Buildings of Derbent","longitude":"48.29719444","latitude":"42.05297222","states_name_en":"Russian Federation","region_en":"Europe and North America"},{"name_en":"Ensemble of the Novodevichy Convent","longitude":"37.55508333","latitude":"55.72611111","states_name_en":"Russian Federation","region_en":"Europe and North America"},{"name_en":"Historical Centre of the City of Yaroslavl","longitude":"39.87611","latitude":"57.65278","states_name_en":"Russian Federation","region_en":"Europe and North America"},{"name_en":"Putorana Plateau","longitude":"94.1580555556","latitude":"69.0469444444","states_name_en":"Russian Federation","region_en":"Europe and North America"},{"name_en":"Lena Pillars Nature Park","longitude":"127.0","latitude":"60.6666666667","states_name_en":"Russian Federation","region_en":"Europe and North America"},{"name_en":"Assumption Cathedral and Monastery of the town-island of Sviyazhsk","longitude":"48.6527777778","latitude":"55.7702777778","states_name_en":"Russian Federation","region_en":"Europe and North America"},{"name_en":"Brimstone Hill Fortress National Park","longitude":"-62.83722","latitude":"17.34694","states_name_en":"Saint Kitts and Nevis","region_en":"Latin America and the Caribbean"},{"name_en":"Pitons Management Area","longitude":"-61.07036111","latitude":"13.80708333","states_name_en":"Saint Lucia","region_en":"Latin America and the Caribbean"},{"name_en":"San Marino Historic Centre and Mount Titano","longitude":"12.4519444444","latitude":"43.9327777778","states_name_en":"San Marino","region_en":"Europe and North America"},{"name_en":"Al-Hijr Archaeological Site (Madâin Sâlih)","longitude":"37.955","latitude":"26.7836111111","states_name_en":"Saudi Arabia","region_en":"Arab States"},{"name_en":"At-Turaif District in ad-Dir'iyah","longitude":"46.5724666667","latitude":"24.7341333333","states_name_en":"Saudi Arabia","region_en":"Arab States"},{"name_en":"Historic Jeddah, the Gate to Makkah","longitude":"39.1875","latitude":"21.4838888889","states_name_en":"Saudi Arabia","region_en":"Arab States"},{"name_en":"Rock Art in the Hail Region of Saudi Arabia","longitude":"40.9130555556","latitude":"28.0105555556","states_name_en":"Saudi Arabia","region_en":"Arab States"},{"name_en":"Al-Ahsa Oasis, an Evolving Cultural Landscape","longitude":"49.6305694444","latitude":"25.4021666667","states_name_en":"Saudi Arabia","region_en":"Arab States"},{"name_en":"Djoudj National Bird Sanctuary","longitude":"-16.16667","latitude":"16.5","states_name_en":"Senegal","region_en":"Africa"},{"name_en":"Island of Gorée","longitude":"-17.40083","latitude":"14.66722","states_name_en":"Senegal","region_en":"Africa"},{"name_en":"Niokolo-Koba National Park","longitude":"-12.71667","latitude":"13.06667","states_name_en":"Senegal","region_en":"Africa"},{"name_en":"Island of Saint-Louis","longitude":"-16.50444","latitude":"16.02778","states_name_en":"Senegal","region_en":"Africa"},{"name_en":"Saloum Delta","longitude":"-16.4986111111","latitude":"13.8352777778","states_name_en":"Senegal","region_en":"Africa"},{"name_en":"Bassari Country: Bassari, Fula and Bedik Cultural Landscapes","longitude":"-12.8458333333","latitude":"12.5933333333","states_name_en":"Senegal","region_en":"Africa"},{"name_en":"Stari Ras and Sopoćani","longitude":"20.42278","latitude":"43.11889","states_name_en":"Serbia","region_en":"Europe and North America"},{"name_en":"Studenica Monastery","longitude":"20.53667","latitude":"43.48611","states_name_en":"Serbia","region_en":"Europe and North America"},{"name_en":"Medieval Monuments in Kosovo","longitude":"20.2655555555","latitude":"42.6611111111","states_name_en":"Serbia","region_en":"Europe and North America"},{"name_en":"Gamzigrad-Romuliana, Palace of Galerius","longitude":"22.1861111111","latitude":"43.8993055556","states_name_en":"Serbia","region_en":"Europe and North America"},{"name_en":"Aldabra Atoll","longitude":"46.41666667","latitude":"-9.416666667","states_name_en":"Seychelles","region_en":"Africa"},{"name_en":"Vallée de Mai Nature Reserve","longitude":"55.7375","latitude":"-4.32917","states_name_en":"Seychelles","region_en":"Africa"},{"name_en":"Singapore Botanic Gardens","longitude":"103.8161111111","latitude":"1.3152777778","states_name_en":"Singapore","region_en":"Asia and the Pacific"},{"name_en":"Historic Town of Banská Štiavnica and the Technical Monuments in its Vicinity","longitude":"18.9","latitude":"48.46111","states_name_en":"Slovakia","region_en":"Europe and North America"},{"name_en":"Levoča, Spišský Hrad and the Associated Cultural Monuments","longitude":"20.7675","latitude":"48.9994444444","states_name_en":"Slovakia","region_en":"Europe and North America"},{"name_en":"Vlkolínec","longitude":"19.2783333333","latitude":"49.0391666667","states_name_en":"Slovakia","region_en":"Europe and North America"},{"name_en":"Bardejov Town Conservation Reserve","longitude":"21.2755555556","latitude":"49.2927777778","states_name_en":"Slovakia","region_en":"Europe and North America"},{"name_en":"Wooden Churches of the Slovak part of the Carpathian Mountain Area","longitude":"19.5583333333","latitude":"49.3361111111","states_name_en":"Slovakia","region_en":"Europe and North America"},{"name_en":"Škocjan Caves","longitude":"14.0","latitude":"45.66667","states_name_en":"Slovenia","region_en":"Europe and North America"},{"name_en":"East Rennell","longitude":"160.33333","latitude":"-11.68333","states_name_en":"Solomon Islands","region_en":"Asia and the Pacific"},{"name_en":"iSimangaliso Wetland Park","longitude":"32.55","latitude":"-27.83889","states_name_en":"South Africa","region_en":"Africa"},{"name_en":"Fossil Hominid Sites of South Africa","longitude":"29.17694","latitude":"-24.15861","states_name_en":"South Africa","region_en":"Africa"},{"name_en":"Robben Island","longitude":"18.36666667","latitude":"-33.8","states_name_en":"South Africa","region_en":"Africa"},{"name_en":"Cape Floral Region Protected Areas","longitude":"18.475","latitude":"-34.3611111111","states_name_en":"South Africa","region_en":"Africa"},{"name_en":"Mapungubwe Cultural Landscape","longitude":"29.23889","latitude":"-22.1925","states_name_en":"South Africa","region_en":"Africa"},{"name_en":"Vredefort Dome","longitude":"27.26","latitude":"-26.86","states_name_en":"South Africa","region_en":"Africa"},{"name_en":"Richtersveld Cultural and Botanical Landscape","longitude":"17.2038888888","latitude":"-28.6","states_name_en":"South Africa","region_en":"Africa"},{"name_en":"ǂKhomani Cultural Landscape","longitude":"20.3745833333","latitude":"-25.6876111111","states_name_en":"South Africa","region_en":"Africa"},{"name_en":"Barberton Makhonjwa Mountains","longitude":"31.0138888889","latitude":"-25.9738888889","states_name_en":"South Africa","region_en":"Africa"},{"name_en":"Cave of Altamira and Paleolithic Cave Art of Northern Spain","longitude":"-4.116166667","latitude":"43.38252778","states_name_en":"Spain","region_en":"Europe and North America"},{"name_en":"Old Town of Segovia and its Aqueduct","longitude":"-4.11675","latitude":"40.94847222","states_name_en":"Spain","region_en":"Europe and North America"},{"name_en":"Monuments of Oviedo and the Kingdom of the Asturias","longitude":"-5.84303","latitude":"43.36262","states_name_en":"Spain","region_en":"Europe and North America"},{"name_en":"Historic Centre of Cordoba","longitude":"-4.779722222","latitude":"37.87919444","states_name_en":"Spain","region_en":"Europe and North America"},{"name_en":"Alhambra, Generalife and Albayzín, Granada","longitude":"-3.59444","latitude":"37.17667","states_name_en":"Spain","region_en":"Europe and North America"},{"name_en":"Burgos Cathedral","longitude":"-3.7040111111","latitude":"42.3407333333","states_name_en":"Spain","region_en":"Europe and North America"},{"name_en":"Monastery and Site of the Escurial, Madrid","longitude":"-4.126416667","latitude":"40.58175","states_name_en":"Spain","region_en":"Europe and North America"},{"name_en":"Works of Antoni Gaudí ","longitude":"2.152972","latitude":"41.41338","states_name_en":"Spain","region_en":"Europe and North America"},{"name_en":"Santiago de Compostela (Old Town)","longitude":"-8.54468","latitude":"42.88076","states_name_en":"Spain","region_en":"Europe and North America"},{"name_en":"Old Town of Ávila with its Extra-Muros Churches","longitude":"-4.70012","latitude":"40.65645","states_name_en":"Spain","region_en":"Europe and North America"},{"name_en":"Mudejar Architecture of Aragon","longitude":"-1.10722","latitude":"40.34389","states_name_en":"Spain","region_en":"Europe and North America"},{"name_en":"Historic City of Toledo","longitude":"-4.029416667","latitude":"39.86688889","states_name_en":"Spain","region_en":"Europe and North America"},{"name_en":"Garajonay National Park","longitude":"-17.23722222","latitude":"28.12625","states_name_en":"Spain","region_en":"Europe and North America"},{"name_en":"Old City of Salamanca","longitude":"-5.6645","latitude":"40.96525","states_name_en":"Spain","region_en":"Europe and North America"},{"name_en":"Cathedral, Alcázar and Archivo de Indias in Seville","longitude":"-5.99155","latitude":"37.38384","states_name_en":"Spain","region_en":"Europe and North America"},{"name_en":"Old Town of Cáceres","longitude":"-6.37","latitude":"39.47444","states_name_en":"Spain","region_en":"Europe and North America"},{"name_en":"Ibiza, Biodiversity and Culture","longitude":"1.435194444","latitude":"38.91113889","states_name_en":"Spain","region_en":"Europe and North America"},{"name_en":"Poblet Monastery","longitude":"1.0825","latitude":"41.38083","states_name_en":"Spain","region_en":"Europe and North America"},{"name_en":"Renaissance Monumental Ensembles of Úbeda and Baeza","longitude":"-3.37122","latitude":"38.01131","states_name_en":"Spain","region_en":"Europe and North America"},{"name_en":"Archaeological Ensemble of Mérida","longitude":"-6.33778","latitude":"38.91611","states_name_en":"Spain","region_en":"Europe and North America"},{"name_en":"Royal Monastery of Santa María de Guadalupe","longitude":"-5.3275","latitude":"39.45285","states_name_en":"Spain","region_en":"Europe and North America"},{"name_en":"Routes of Santiago de Compostela: <i>Camino Francés</i> and Routes of Northern Spain ","longitude":"-6.4147222222","latitude":"43.335","states_name_en":"Spain","region_en":"Europe and North America"},{"name_en":"Doñana National Park","longitude":"-6.358861","latitude":"36.9477","states_name_en":"Spain","region_en":"Europe and North America"},{"name_en":"Historic Walled Town of Cuenca","longitude":"-2.13174","latitude":"40.07662","states_name_en":"Spain","region_en":"Europe and North America"},{"name_en":"La Lonja de la Seda de Valencia","longitude":"-0.378444444","latitude":"39.47441667","states_name_en":"Spain","region_en":"Europe and North America"},{"name_en":"Las Médulas","longitude":"-6.77075","latitude":"42.46939","states_name_en":"Spain","region_en":"Europe and North America"},{"name_en":"Palau de la Música Catalana and Hospital de Sant Pau, Barcelona","longitude":"2.175","latitude":"41.38778","states_name_en":"Spain","region_en":"Europe and North America"},{"name_en":"San Millán Yuso and Suso Monasteries","longitude":"-2.86496","latitude":"42.32586","states_name_en":"Spain","region_en":"Europe and North America"},{"name_en":"Rock Art of the Mediterranean Basin on the Iberian Peninsula","longitude":"-1.03331","latitude":"39.78995","states_name_en":"Spain","region_en":"Europe and North America"},{"name_en":"Archaeological Ensemble of Tárraco","longitude":"1.259305556","latitude":"41.11472222","states_name_en":"Spain","region_en":"Europe and North America"},{"name_en":"University and Historic Precinct of Alcalá de Henares","longitude":"-3.368055556","latitude":"40.48138889","states_name_en":"Spain","region_en":"Europe and North America"},{"name_en":"San Cristóbal de La Laguna","longitude":"-16.31177778","latitude":"28.47788889","states_name_en":"Spain","region_en":"Europe and North America"},{"name_en":"Palmeral of Elche","longitude":"-0.716666667","latitude":"38.26666667","states_name_en":"Spain","region_en":"Europe and North America"},{"name_en":"Roman Walls of Lugo","longitude":"-7.55333","latitude":"43.01111","states_name_en":"Spain","region_en":"Europe and North America"},{"name_en":"Catalan Romanesque Churches of the Vall de Boí","longitude":"0.803611111","latitude":"42.50472222","states_name_en":"Spain","region_en":"Europe and North America"},{"name_en":"Archaeological Site of Atapuerca","longitude":"-3.547222222","latitude":"42.37138889","states_name_en":"Spain","region_en":"Europe and North America"},{"name_en":"Aranjuez Cultural Landscape","longitude":"-3.60934","latitude":"40.03645","states_name_en":"Spain","region_en":"Europe and North America"},{"name_en":"Vizcaya Bridge","longitude":"-3.0168333333","latitude":"43.323175","states_name_en":"Spain","region_en":"Europe and North America"},{"name_en":"Teide National Park","longitude":"-16.6436111111","latitude":"28.2713888889","states_name_en":"Spain","region_en":"Europe and North America"},{"name_en":"Tower of Hercules","longitude":"-8.4063888889","latitude":"43.3858333333","states_name_en":"Spain","region_en":"Europe and North America"},{"name_en":"Cultural Landscape of the Serra de Tramuntana","longitude":"2.6947222222","latitude":"39.7308333333","states_name_en":"Spain","region_en":"Europe and North America"},{"name_en":"Antequera Dolmens Site","longitude":"-4.5444444444","latitude":"37.025","states_name_en":"Spain","region_en":"Europe and North America"},{"name_en":"Caliphate City of Medina Azahara","longitude":"-4.8676944444","latitude":"37.8858888889","states_name_en":"Spain","region_en":"Europe and North America"},{"name_en":"Sacred City of Anuradhapura","longitude":"80.38333333","latitude":"8.333333333","states_name_en":"Sri Lanka","region_en":"Asia and the Pacific"},{"name_en":"Ancient City of Polonnaruwa","longitude":"81.00055556","latitude":"7.915833333","states_name_en":"Sri Lanka","region_en":"Asia and the Pacific"},{"name_en":"Ancient City of Sigiriya","longitude":"80.75","latitude":"7.95","states_name_en":"Sri Lanka","region_en":"Asia and the Pacific"},{"name_en":"Sinharaja Forest Reserve","longitude":"80.5","latitude":"6.416666667","states_name_en":"Sri Lanka","region_en":"Asia and the Pacific"},{"name_en":"Sacred City of Kandy","longitude":"80.64027778","latitude":"7.293611111","states_name_en":"Sri Lanka","region_en":"Asia and the Pacific"},{"name_en":"Old Town of Galle and its Fortifications","longitude":"80.21861111","latitude":"6.021388889","states_name_en":"Sri Lanka","region_en":"Asia and the Pacific"},{"name_en":"Golden Temple of Dambulla","longitude":"80.64916667","latitude":"7.856666667","states_name_en":"Sri Lanka","region_en":"Asia and the Pacific"},{"name_en":"Central Highlands of Sri Lanka","longitude":"80.8021","latitude":"7.45245","states_name_en":"Sri Lanka","region_en":"Asia and the Pacific"},{"name_en":"Sanganeb Marine National Park and Dungonab Bay – Mukkawar Island Marine National Park","longitude":"37.4430555556","latitude":"19.7361111111","states_name_en":"Sudan","region_en":"Arab States"},{"name_en":"Gebel Barkal and the Sites of the Napatan Region","longitude":"31.8280277778","latitude":"18.537","states_name_en":"Sudan","region_en":"Arab States"},{"name_en":"Archaeological Sites of the Island of Meroe","longitude":"33.7166666667","latitude":"16.9333333333","states_name_en":"Sudan","region_en":"Arab States"},{"name_en":"Historic Inner City of Paramaribo","longitude":"-55.15","latitude":"5.82611","states_name_en":"Suriname","region_en":"Latin America and the Caribbean"},{"name_en":"Central Suriname Nature Reserve","longitude":"-56.5","latitude":"4.0","states_name_en":"Suriname","region_en":"Latin America and the Caribbean"},{"name_en":"Birka and Hovgården","longitude":"17.54264","latitude":"59.33514","states_name_en":"Sweden","region_en":"Europe and North America"},{"name_en":"Engelsberg Ironworks","longitude":"16.00833","latitude":"59.96667","states_name_en":"Sweden","region_en":"Europe and North America"},{"name_en":"Rock Carvings in Tanum","longitude":"11.34111","latitude":"58.70111","states_name_en":"Sweden","region_en":"Europe and North America"},{"name_en":"Skogskyrkogården","longitude":"18.09944","latitude":"59.27556","states_name_en":"Sweden","region_en":"Europe and North America"},{"name_en":"Royal Domain of Drottningholm","longitude":"17.88333","latitude":"59.32306","states_name_en":"Sweden","region_en":"Europe and North America"},{"name_en":"Hanseatic Town of Visby","longitude":"18.29583","latitude":"57.64167","states_name_en":"Sweden","region_en":"Europe and North America"},{"name_en":"Church Town of Gammelstad, Luleå ","longitude":"22.02861","latitude":"65.64611","states_name_en":"Sweden","region_en":"Europe and North America"},{"name_en":"Laponian Area","longitude":"17.58333","latitude":"67.33333","states_name_en":"Sweden","region_en":"Europe and North America"},{"name_en":"Naval Port of Karlskrona","longitude":"15.58333","latitude":"56.16667","states_name_en":"Sweden","region_en":"Europe and North America"},{"name_en":"Agricultural Landscape of Southern Öland","longitude":"16.48333","latitude":"56.325","states_name_en":"Sweden","region_en":"Europe and North America"},{"name_en":"Mining Area of the Great Copper Mountain in Falun","longitude":"15.63083","latitude":"60.60472","states_name_en":"Sweden","region_en":"Europe and North America"},{"name_en":"Grimeton Radio Station, Varberg","longitude":"12.38333333","latitude":"57.1","states_name_en":"Sweden","region_en":"Europe and North America"},{"name_en":"Decorated Farmhouses of Hälsingland","longitude":"16.1958333333","latitude":"61.7072222222","states_name_en":"Sweden","region_en":"Europe and North America"},{"name_en":"Old City of Berne","longitude":"7.45028","latitude":"46.94806","states_name_en":"Switzerland","region_en":"Europe and North America"},{"name_en":"Abbey of St Gall","longitude":"9.37778","latitude":"47.42333","states_name_en":"Switzerland","region_en":"Europe and North America"},{"name_en":"Benedictine Convent of St John at Müstair","longitude":"10.44765","latitude":"46.62945","states_name_en":"Switzerland","region_en":"Europe and North America"},{"name_en":"Three Castles, Defensive Wall and Ramparts of the Market-Town of Bellinzona","longitude":"9.02242","latitude":"46.19314","states_name_en":"Switzerland","region_en":"Europe and North America"},{"name_en":"Swiss Alps Jungfrau-Aletsch","longitude":"8.0333333333","latitude":"46.5","states_name_en":"Switzerland","region_en":"Europe and North America"},{"name_en":"Swiss Tectonic Arena Sardona","longitude":"9.25","latitude":"46.9166666667","states_name_en":"Switzerland","region_en":"Europe and North America"},{"name_en":"Lavaux, Vineyard Terraces","longitude":"6.7461111111","latitude":"46.4919444444","states_name_en":"Switzerland","region_en":"Europe and North America"},{"name_en":"La Chaux-de-Fonds / Le Locle, Watchmaking Town Planning","longitude":"6.8327777778","latitude":"47.1038888889","states_name_en":"Switzerland","region_en":"Europe and North America"},{"name_en":"Ancient City of Damascus","longitude":"36.30639","latitude":"33.51139","states_name_en":"Syrian Arab Republic","region_en":"Arab States"},{"name_en":"Ancient City of Aleppo","longitude":"37.1627777778","latitude":"36.1991666667","states_name_en":"Syrian Arab Republic","region_en":"Arab States"},{"name_en":"Ancient City of Bosra","longitude":"36.48167","latitude":"32.51806","states_name_en":"Syrian Arab Republic","region_en":"Arab States"},{"name_en":"Site of Palmyra","longitude":"38.26667","latitude":"34.55417","states_name_en":"Syrian Arab Republic","region_en":"Arab States"},{"name_en":"Crac des Chevaliers and Qal’at Salah El-Din","longitude":"36.2630555555","latitude":"34.7816666667","states_name_en":"Syrian Arab Republic","region_en":"Arab States"},{"name_en":"Ancient Villages of Northern Syria","longitude":"36.8441666667","latitude":"36.3341666667","states_name_en":"Syrian Arab Republic","region_en":"Arab States"},{"name_en":"Proto-urban Site of Sarazm","longitude":"67.4602777778","latitude":"39.5077777778","states_name_en":"Tajikistan","region_en":"Asia and the Pacific"},{"name_en":"Tajik National Park (Mountains of the Pamirs)","longitude":"72.3052777778","latitude":"38.765","states_name_en":"Tajikistan","region_en":"Asia and the Pacific"},{"name_en":"Historic Town of Sukhothai and Associated Historic Towns","longitude":"99.78972","latitude":"17.00722","states_name_en":"Thailand","region_en":"Asia and the Pacific"},{"name_en":"Ban Chiang Archaeological Site","longitude":"103.35833","latitude":"17.54861","states_name_en":"Thailand","region_en":"Asia and the Pacific"},{"name_en":"Historic City of Ayutthaya","longitude":"100.56056","latitude":"14.34778","states_name_en":"Thailand","region_en":"Asia and the Pacific"},{"name_en":"Dong Phayayen-Khao Yai Forest Complex","longitude":"102.05","latitude":"14.33","states_name_en":"Thailand","region_en":"Asia and the Pacific"},{"name_en":"Thungyai-Huai Kha Khaeng Wildlife Sanctuaries","longitude":"98.91667","latitude":"15.33333","states_name_en":"Thailand","region_en":"Asia and the Pacific"},{"name_en":"Koutammakou, the Land of the Batammariba","longitude":"1.133333333","latitude":"10.06666667","states_name_en":"Togo","region_en":"Africa"},{"name_en":"Ichkeul National Park","longitude":"9.67472","latitude":"37.16361","states_name_en":"Tunisia","region_en":"Arab States"},{"name_en":"Medina of Tunis","longitude":"10.16667","latitude":"36.81667","states_name_en":"Tunisia","region_en":"Arab States"},{"name_en":"Archaeological Site of Carthage","longitude":"10.32333","latitude":"36.85278","states_name_en":"Tunisia","region_en":"Arab States"},{"name_en":"Amphitheatre of El Jem","longitude":"10.70694","latitude":"35.29639","states_name_en":"Tunisia","region_en":"Arab States"},{"name_en":"Punic Town of Kerkuane and its Necropolis","longitude":"11.09917","latitude":"36.94639","states_name_en":"Tunisia","region_en":"Arab States"},{"name_en":"Medina of Sousse","longitude":"10.63861","latitude":"35.82778","states_name_en":"Tunisia","region_en":"Arab States"},{"name_en":"Kairouan","longitude":"10.10389","latitude":"35.68167","states_name_en":"Tunisia","region_en":"Arab States"},{"name_en":"Dougga / Thugga","longitude":"9.22028","latitude":"36.42361","states_name_en":"Tunisia","region_en":"Arab States"},{"name_en":"Historic Areas of Istanbul","longitude":"28.97993","latitude":"41.00847","states_name_en":"Turkey","region_en":"Europe and North America"},{"name_en":"Göreme National Park and the Rock Sites of Cappadocia","longitude":"34.85","latitude":"38.66667","states_name_en":"Turkey","region_en":"Europe and North America"},{"name_en":"Great Mosque and Hospital of Divriği","longitude":"38.121826","latitude":"39.371271","states_name_en":"Turkey","region_en":"Europe and North America"},{"name_en":"Hattusha: the Hittite Capital","longitude":"34.62056","latitude":"40.01389","states_name_en":"Turkey","region_en":"Europe and North America"},{"name_en":"Nemrut Dağ","longitude":"38.76369","latitude":"38.03661","states_name_en":"Turkey","region_en":"Europe and North America"},{"name_en":"Xanthos-Letoon","longitude":"29.32028","latitude":"36.335","states_name_en":"Turkey","region_en":"Europe and North America"},{"name_en":"Hierapolis-Pamukkale","longitude":"29.12333","latitude":"37.92389","states_name_en":"Turkey","region_en":"Europe and North America"},{"name_en":"City of Safranbolu","longitude":"32.68972","latitude":"41.26","states_name_en":"Turkey","region_en":"Europe and North America"},{"name_en":"Archaeological Site of Troy","longitude":"26.239","latitude":"39.95644","states_name_en":"Turkey","region_en":"Europe and North America"},{"name_en":"Ephesus","longitude":"27.3594444444","latitude":"37.9291666667","states_name_en":"Turkey","region_en":"Europe and North America"},{"name_en":"Selimiye Mosque and its Social Complex","longitude":"26.5594444444","latitude":"41.6777777778","states_name_en":"Turkey","region_en":"Europe and North America"},{"name_en":"Neolithic Site of Çatalhöyük","longitude":"32.8280555556","latitude":"37.6666666667","states_name_en":"Turkey","region_en":"Europe and North America"},{"name_en":"Bursa and Cumalıkızık: the Birth of the Ottoman Empire","longitude":"29.0623361111","latitude":"40.1847305556","states_name_en":"Turkey","region_en":"Europe and North America"},{"name_en":"Pergamon and its Multi-Layered Cultural Landscape","longitude":"27.18","latitude":"39.1258333333","states_name_en":"Turkey","region_en":"Europe and North America"},{"name_en":"Diyarbakır Fortress and Hevsel Gardens Cultural Landscape","longitude":"40.2393083333","latitude":"37.9031","states_name_en":"Turkey","region_en":"Europe and North America"},{"name_en":"Archaeological Site of Ani","longitude":"43.5666666667","latitude":"40.5","states_name_en":"Turkey","region_en":"Europe and North America"},{"name_en":"Aphrodisias","longitude":"28.7236111111","latitude":"37.7083333333","states_name_en":"Turkey","region_en":"Europe and North America"},{"name_en":"Göbekli Tepe","longitude":"38.9223638889","latitude":"37.2232419444","states_name_en":"Turkey","region_en":"Europe and North America"},{"name_en":"State Historical and Cultural Park “Ancient Merv”","longitude":"62.1775","latitude":"37.70083","states_name_en":"Turkmenistan","region_en":"Asia and the Pacific"},{"name_en":"Kunya-Urgench","longitude":"59.08494","latitude":"42.18318","states_name_en":"Turkmenistan","region_en":"Asia and the Pacific"},{"name_en":"Parthian Fortresses of Nisa","longitude":"58.1986111111","latitude":"37.9997222222","states_name_en":"Turkmenistan","region_en":"Asia and the Pacific"},{"name_en":"Bwindi Impenetrable National Park","longitude":"29.66138889","latitude":"-1.080555556","states_name_en":"Uganda","region_en":"Africa"},{"name_en":"Rwenzori Mountains National Park","longitude":"29.92416667","latitude":"0.223611111","states_name_en":"Uganda","region_en":"Africa"},{"name_en":"Tombs of Buganda Kings at Kasubi","longitude":"32.55138889","latitude":"0.348611111","states_name_en":"Uganda","region_en":"Africa"},{"name_en":"Kiev: Saint-Sophia Cathedral and Related Monastic Buildings, Kiev-Pechersk Lavra","longitude":"30.51686","latitude":"50.45258","states_name_en":"Ukraine","region_en":"Europe and North America"},{"name_en":"L'viv – the Ensemble of the Historic Centre","longitude":"24.03198","latitude":"49.84163","states_name_en":"Ukraine","region_en":"Europe and North America"},{"name_en":"Residence of Bukovinian and Dalmatian Metropolitans","longitude":"25.9247222222","latitude":"48.2966666667","states_name_en":"Ukraine","region_en":"Europe and North America"},{"name_en":"Ancient City of Tauric Chersonese and its Chora","longitude":"33.4913888889","latitude":"44.6108333333","states_name_en":"Ukraine","region_en":"Europe and North America"},{"name_en":"Cultural Sites of Al Ain (Hafit, Hili, Bidaa Bint Saud and Oases Areas)","longitude":"55.8063888889","latitude":"24.0677777778","states_name_en":"United Arab Emirates","region_en":"Arab States"},{"name_en":"Giant's Causeway and Causeway Coast","longitude":"-6.485277778","latitude":"55.25","states_name_en":"United Kingdom of Great Britain and Northern Ireland","region_en":"Europe and North America"},{"name_en":"Durham Castle and Cathedral","longitude":"-1.576111111","latitude":"54.77472222","states_name_en":"United Kingdom of Great Britain and Northern Ireland","region_en":"Europe and North America"},{"name_en":"Ironbridge Gorge","longitude":"-2.472777778","latitude":"52.62638889","states_name_en":"United Kingdom of Great Britain and Northern Ireland","region_en":"Europe and North America"},{"name_en":"Studley Royal Park including the Ruins of Fountains Abbey","longitude":"-1.573055556","latitude":"54.11611111","states_name_en":"United Kingdom of Great Britain and Northern Ireland","region_en":"Europe and North America"},{"name_en":"Stonehenge, Avebury and Associated Sites","longitude":"-1.825277778","latitude":"51.17888889","states_name_en":"United Kingdom of Great Britain and Northern Ireland","region_en":"Europe and North America"},{"name_en":"Castles and Town Walls of King Edward in Gwynedd","longitude":"-4.276944444","latitude":"53.13972222","states_name_en":"United Kingdom of Great Britain and Northern Ireland","region_en":"Europe and North America"},{"name_en":"St Kilda","longitude":"-8.576666667","latitude":"57.81722222","states_name_en":"United Kingdom of Great Britain and Northern Ireland","region_en":"Europe and North America"},{"name_en":"The English Lake District","longitude":"-3.0824166667","latitude":"54.4766111111","states_name_en":"United Kingdom of Great Britain and Northern Ireland","region_en":"Europe and North America"},{"name_en":"Blenheim Palace","longitude":"-1.361388889","latitude":"51.84194444","states_name_en":"United Kingdom of Great Britain and Northern Ireland","region_en":"Europe and North America"},{"name_en":"Palace of Westminster and Westminster Abbey including Saint Margaret’s Church","longitude":"-0.128611111","latitude":"51.49972222","states_name_en":"United Kingdom of Great Britain and Northern Ireland","region_en":"Europe and North America"},{"name_en":"City of Bath","longitude":"-2.358611111","latitude":"51.38138889","states_name_en":"United Kingdom of Great Britain and Northern Ireland","region_en":"Europe and North America"},{"name_en":"New Lanark","longitude":"-3.783055556","latitude":"55.66333333","states_name_en":"United Kingdom of Great Britain and Northern Ireland","region_en":"Europe and North America"},{"name_en":"Henderson Island","longitude":"-128.333333333","latitude":"-24.3666666667","states_name_en":"United Kingdom of Great Britain and Northern Ireland","region_en":"Europe and North America"},{"name_en":"Tower of London","longitude":"-0.076111111","latitude":"51.50805556","states_name_en":"United Kingdom of Great Britain and Northern Ireland","region_en":"Europe and North America"},{"name_en":"Canterbury Cathedral, St Augustine's Abbey, and St Martin's Church","longitude":"1.083333333","latitude":"51.28","states_name_en":"United Kingdom of Great Britain and Northern Ireland","region_en":"Europe and North America"},{"name_en":"Heart of Neolithic Orkney","longitude":"-3.188666667","latitude":"58.99605556","states_name_en":"United Kingdom of Great Britain and Northern Ireland","region_en":"Europe and North America"},{"name_en":"Old and New Towns of Edinburgh","longitude":"-3.216666667","latitude":"55.95","states_name_en":"United Kingdom of Great Britain and Northern Ireland","region_en":"Europe and North America"},{"name_en":"Gough and Inaccessible Islands","longitude":"-9.928611111","latitude":"-40.32472222","states_name_en":"United Kingdom of Great Britain and Northern Ireland","region_en":"Europe and North America"},{"name_en":"Maritime Greenwich","longitude":"-0.0037777778","latitude":"51.4811666667","states_name_en":"United Kingdom of Great Britain and Northern Ireland","region_en":"Europe and North America"},{"name_en":"Historic Town of St George and Related Fortifications, Bermuda","longitude":"-64.67777778","latitude":"32.37944444","states_name_en":"United Kingdom of Great Britain and Northern Ireland","region_en":"Europe and North America"},{"name_en":"Blaenavon Industrial Landscape","longitude":"-3.088055556","latitude":"51.77638889","states_name_en":"United Kingdom of Great Britain and Northern Ireland","region_en":"Europe and North America"},{"name_en":"Saltaire","longitude":"-1.788333333","latitude":"53.83916667","states_name_en":"United Kingdom of Great Britain and Northern Ireland","region_en":"Europe and North America"},{"name_en":"Dorset and East Devon Coast","longitude":"-2.989888889","latitude":"50.70555556","states_name_en":"United Kingdom of Great Britain and Northern Ireland","region_en":"Europe and North America"},{"name_en":"Derwent Valley Mills","longitude":"-1.488055556","latitude":"53.02888889","states_name_en":"United Kingdom of Great Britain and Northern Ireland","region_en":"Europe and North America"},{"name_en":"Royal Botanic Gardens, Kew","longitude":"-0.294027778","latitude":"51.48194444","states_name_en":"United Kingdom of Great Britain and Northern Ireland","region_en":"Europe and North America"},{"name_en":"Liverpool – Maritime Mercantile City","longitude":"-2.994444444","latitude":"53.40666667","states_name_en":"United Kingdom of Great Britain and Northern Ireland","region_en":"Europe and North America"},{"name_en":"Cornwall and West Devon Mining Landscape","longitude":"-5.3836111111","latitude":"50.1361111111","states_name_en":"United Kingdom of Great Britain and Northern Ireland","region_en":"Europe and North America"},{"name_en":"Pontcysyllte Aqueduct and Canal","longitude":"-3.0877777778","latitude":"52.9702777778","states_name_en":"United Kingdom of Great Britain and Northern Ireland","region_en":"Europe and North America"},{"name_en":"The Forth Bridge","longitude":"-3.3888888889","latitude":"56.0011111111","states_name_en":"United Kingdom of Great Britain and Northern Ireland","region_en":"Europe and North America"},{"name_en":"Gorham's Cave Complex","longitude":"-5.3420611111","latitude":"36.1226694444","states_name_en":"United Kingdom of Great Britain and Northern Ireland","region_en":"Europe and North America"},{"name_en":"Ngorongoro Conservation Area","longitude":"35.54083","latitude":"-3.18722","states_name_en":"United Republic of Tanzania","region_en":"Africa"},{"name_en":"Ruins of Kilwa Kisiwani and Ruins of Songo Mnara","longitude":"39.52278","latitude":"-8.95778","states_name_en":"United Republic of Tanzania","region_en":"Africa"},{"name_en":"Serengeti National Park","longitude":"34.56667","latitude":"-2.33333","states_name_en":"United Republic of Tanzania","region_en":"Africa"},{"name_en":"Stone Town of Zanzibar","longitude":"39.18917","latitude":"-6.16306","states_name_en":"United Republic of Tanzania","region_en":"Africa"},{"name_en":"Selous Game Reserve","longitude":"37.4","latitude":"-9.0","states_name_en":"United Republic of Tanzania","region_en":"Africa"},{"name_en":"Kilimanjaro National Park","longitude":"37.36667","latitude":"-3.06667","states_name_en":"United Republic of Tanzania","region_en":"Africa"},{"name_en":"Kondoa Rock-Art Sites","longitude":"35.8338888888","latitude":"-4.7244444444","states_name_en":"United Republic of Tanzania","region_en":"Africa"},{"name_en":"Mesa Verde National Park","longitude":"-108.4855556","latitude":"37.26166667","states_name_en":"United States of America","region_en":"Europe and North America"},{"name_en":"Yellowstone National Park","longitude":"-110.82778","latitude":"44.46056","states_name_en":"United States of America","region_en":"Europe and North America"},{"name_en":"Grand Canyon National Park","longitude":"-112.0905556","latitude":"36.10083333","states_name_en":"United States of America","region_en":"Europe and North America"},{"name_en":"Everglades National Park","longitude":"-80.99638889","latitude":"25.55444444","states_name_en":"United States of America","region_en":"Europe and North America"},{"name_en":"Independence Hall","longitude":"-75.15","latitude":"39.94861111","states_name_en":"United States of America","region_en":"Europe and North America"},{"name_en":"Redwood National and State Parks","longitude":"-123.9980556","latitude":"41.37388889","states_name_en":"United States of America","region_en":"Europe and North America"},{"name_en":"Mammoth Cave National Park","longitude":"-86.10305556","latitude":"37.18722222","states_name_en":"United States of America","region_en":"Europe and North America"},{"name_en":"Olympic National Park","longitude":"-123.4488889","latitude":"47.74833333","states_name_en":"United States of America","region_en":"Europe and North America"},{"name_en":"Cahokia Mounds State Historic Site","longitude":"-90.06138889","latitude":"38.65861111","states_name_en":"United States of America","region_en":"Europe and North America"},{"name_en":"Great Smoky Mountains National Park","longitude":"-83.43555556","latitude":"35.59305556","states_name_en":"United States of America","region_en":"Europe and North America"},{"name_en":"La Fortaleza and San Juan National Historic Site in Puerto Rico","longitude":"-66.125","latitude":"18.46666667","states_name_en":"United States of America","region_en":"Europe and North America"},{"name_en":"Statue of Liberty","longitude":"-74.04472222","latitude":"40.68944444","states_name_en":"United States of America","region_en":"Europe and North America"},{"name_en":"Yosemite National Park","longitude":"-119.5966667","latitude":"37.74611111","states_name_en":"United States of America","region_en":"Europe and North America"},{"name_en":"Chaco Culture","longitude":"-107.9708333","latitude":"36.06377778","states_name_en":"United States of America","region_en":"Europe and North America"},{"name_en":"Hawaii Volcanoes National Park","longitude":"-155.1236111","latitude":"19.40083333","states_name_en":"United States of America","region_en":"Europe and North America"},{"name_en":"Monticello and the University of Virginia in Charlottesville","longitude":"-78.50388889","latitude":"38.03277778","states_name_en":"United States of America","region_en":"Europe and North America"},{"name_en":"Taos Pueblo","longitude":"-105.54167","latitude":"36.43889","states_name_en":"United States of America","region_en":"Europe and North America"},{"name_en":"Carlsbad Caverns National Park","longitude":"-104.3833333","latitude":"32.16666667","states_name_en":"United States of America","region_en":"Europe and North America"},{"name_en":"Papahānaumokuākea","longitude":"-170.14582","latitude":"25.34907","states_name_en":"United States of America","region_en":"Europe and North America"},{"name_en":"Monumental Earthworks of Poverty Point","longitude":"-91.4063888889","latitude":"32.6369444444","states_name_en":"United States of America","region_en":"Europe and North America"},{"name_en":"San Antonio Missions","longitude":"-98.46","latitude":"29.3280555556","states_name_en":"United States of America","region_en":"Europe and North America"},{"name_en":"Historic Quarter of the City of Colonia del Sacramento","longitude":"-57.85333333","latitude":"-34.46777778","states_name_en":"Uruguay","region_en":"Latin America and the Caribbean"},{"name_en":"Fray Bentos Industrial Landscape","longitude":"-58.3316666667","latitude":"-33.1177777778","states_name_en":"Uruguay","region_en":"Latin America and the Caribbean"},{"name_en":"Itchan Kala","longitude":"60.36389","latitude":"41.37833","states_name_en":"Uzbekistan","region_en":"Asia and the Pacific"},{"name_en":"Historic Centre of Bukhara","longitude":"64.42861","latitude":"39.77472","states_name_en":"Uzbekistan","region_en":"Asia and the Pacific"},{"name_en":"Samarkand  – Crossroad of Cultures","longitude":"67.0","latitude":"39.66861","states_name_en":"Uzbekistan","region_en":"Asia and the Pacific"},{"name_en":"Historic Centre of Shakhrisyabz","longitude":"66.83333","latitude":"39.05","states_name_en":"Uzbekistan","region_en":"Asia and the Pacific"},{"name_en":"Chief Roi Mata’s Domain","longitude":"168.1777194444","latitude":"-17.6280694444","states_name_en":"Vanuatu","region_en":"Asia and the Pacific"},{"name_en":"Coro and its Port","longitude":"-69.68333333","latitude":"11.4","states_name_en":"Venezuela (Bolivarian Republic of)","region_en":"Latin America and the Caribbean"},{"name_en":"Canaima National Park","longitude":"-61.5","latitude":"5.33333","states_name_en":"Venezuela (Bolivarian Republic of)","region_en":"Latin America and the Caribbean"},{"name_en":"Ciudad Universitaria de Caracas","longitude":"-66.89068","latitude":"10.49073","states_name_en":"Venezuela (Bolivarian Republic of)","region_en":"Latin America and the Caribbean"},{"name_en":"Ha Long Bay","longitude":"107.1","latitude":"20.9","states_name_en":"Viet Nam","region_en":"Asia and the Pacific"},{"name_en":"Complex of Hué Monuments","longitude":"107.57778","latitude":"16.46944","states_name_en":"Viet Nam","region_en":"Asia and the Pacific"},{"name_en":"Hoi An Ancient Town","longitude":"108.3333333","latitude":"15.88333333","states_name_en":"Viet Nam","region_en":"Asia and the Pacific"},{"name_en":"My Son Sanctuary","longitude":"108.5666667","latitude":"15.51666667","states_name_en":"Viet Nam","region_en":"Asia and the Pacific"},{"name_en":"Phong Nha-Ke Bang National Park","longitude":"106.15125","latitude":"17.5372222222","states_name_en":"Viet Nam","region_en":"Asia and the Pacific"},{"name_en":"Central Sector of the Imperial Citadel of Thang Long - Hanoi","longitude":"105.8372222222","latitude":"21.0394444444","states_name_en":"Viet Nam","region_en":"Asia and the Pacific"},{"name_en":"Citadel of the Ho Dynasty","longitude":"105.6047222222","latitude":"20.0780555556","states_name_en":"Viet Nam","region_en":"Asia and the Pacific"},{"name_en":"Trang An Landscape Complex","longitude":"105.8963888889","latitude":"20.2566666667","states_name_en":"Viet Nam","region_en":"Asia and the Pacific"},{"name_en":"Old Walled City of Shibam","longitude":"48.62667","latitude":"15.92694","states_name_en":"Yemen","region_en":"Arab States"},{"name_en":"Old City of Sana'a","longitude":"44.20805556","latitude":"15.35555556","states_name_en":"Yemen","region_en":"Arab States"},{"name_en":"Historic Town of Zabid","longitude":"43.3155277778","latitude":"14.1953333333","states_name_en":"Yemen","region_en":"Arab States"},{"name_en":"Socotra Archipelago","longitude":"53.8333333333","latitude":"12.5","states_name_en":"Yemen","region_en":"Arab States"},{"name_en":"Mana Pools National Park, Sapi and Chewore Safari Areas","longitude":"29.40805556","latitude":"-15.81944444","states_name_en":"Zimbabwe","region_en":"Africa"},{"name_en":"Matobo Hills","longitude":"28.5","latitude":"-20.5","states_name_en":"Zimbabwe","region_en":"Africa"},{"name_en":"Great Zimbabwe National Monument","longitude":"30.93333333","latitude":"-20.28333333","states_name_en":"Zimbabwe","region_en":"Africa"},{"name_en":"Khami Ruins National Monument","longitude":"28.37666667","latitude":"-20.15833333","states_name_en":"Zimbabwe","region_en":"Africa"},{"name_en":"Ancient and Primeval Beech Forests of the Carpathians and Other Regions of Europe","longitude":"22.3388888889","latitude":"49.0097222222","states_name_en":"Albania,Austria,Belgium,Bulgaria,Croatia,Germany,Italy,Romania,Slovakia,Slovenia,Spain,Ukraine","region_en":"Europe and North America"},{"name_en":"Qhapaq Ñan, Andean Road System","longitude":"-69.5916666667","latitude":"-18.25","states_name_en":"Argentina,Bolivia (Plurinational State of),Chile,Colombia,Ecuador,Peru","region_en":"Latin America and the Caribbean"},{"name_en":"Jesuit Missions of the Guaranis: San Ignacio Mini, Santa Ana, Nuestra Señora de Loreto and Santa Maria Mayor (Argentina), Ruins of Sao Miguel das Missoes (Brazil)","longitude":"-54.26583333","latitude":"-28.54333333","states_name_en":"Argentina,Brazil","region_en":"Latin America and the Caribbean"},{"name_en":"Prehistoric Pile Dwellings around the Alps","longitude":"8.2075","latitude":"47.2783333333","states_name_en":"Austria,France,Germany,Italy,Slovenia,Switzerland","region_en":"Europe and North America"},{"name_en":"Fertö / Neusiedlersee Cultural Landscape","longitude":"16.72272222","latitude":"47.71927778","states_name_en":"Austria,Hungary","region_en":"Europe and North America"},{"name_en":"Struve Geodetic Arc","longitude":"26.3377777777","latitude":"59.0577777778","states_name_en":"Belarus,Estonia,Finland,Latvia,Lithuania,Norway,Republic of Moldova,Russian Federation,Sweden,Ukraine","region_en":"Europe and North America"},{"name_en":"Białowieża Forest","longitude":"23.9811111111","latitude":"52.7275","states_name_en":"Belarus,Poland","region_en":"Europe and North America"},{"name_en":"Belfries of Belgium and France","longitude":"3.23139","latitude":"50.17444","states_name_en":"Belgium,France","region_en":"Europe and North America"},{"name_en":"The Architectural Work of Le Corbusier, an Outstanding Contribution to the Modern Movement","longitude":"6.8293361111","latitude":"46.4684138889","states_name_en":"Belgium,France,Germany,Switzerland,India,Japan,Argentina","region_en":"Europe and North America,Asia and the Pacific,Latin America and the Caribbean"},{"name_en":"W-Arly-Pendjari Complex","longitude":"2.4877777778","latitude":"11.8841666667","states_name_en":"Benin,Burkina Faso,Niger","region_en":"Africa"},{"name_en":"Stećci Medieval Tombstone Graveyards","longitude":"17.9240527778","latitude":"43.0922138889","states_name_en":"Bosnia and Herzegovina,Croatia,Serbia,Montenegro","region_en":"Europe and North America"},{"name_en":"Sangha Trinational","longitude":"16.5541666667","latitude":"2.6094444444","states_name_en":"Cameroon,Central African Republic,Congo","region_en":"Africa"},{"name_en":"Kluane / Wrangell-St. Elias / Glacier Bay / Tatshenshini-Alsek","longitude":"-140.9919722","latitude":"61.19758333","states_name_en":"Canada,United States of America","region_en":"Europe and North America"},{"name_en":"Waterton Glacier International Peace Park","longitude":"-113.9041667","latitude":"48.99605556","states_name_en":"Canada,United States of America","region_en":"Europe and North America"},{"name_en":"Silk Roads: the Routes Network of Chang'an-Tianshan Corridor","longitude":"108.8572222222","latitude":"34.3044444444","states_name_en":"China,Kazakhstan,Kyrgyzstan","region_en":"Asia and the Pacific"},{"name_en":"Talamanca Range-La Amistad Reserves / La Amistad National Park","longitude":"-82.93880556","latitude":"9.407083333","states_name_en":"Costa Rica,Panama","region_en":"Latin America and the Caribbean"},{"name_en":"Mount Nimba Strict Nature Reserve","longitude":"-8.39097","latitude":"7.60318","states_name_en":"Côte d'Ivoire,Guinea","region_en":"Africa"},{"name_en":"Venetian Works of Defence between the 16th and 17th Centuries: <em>Stato da Terra</em> – Western <em>Stato da Mar</em>","longitude":"9.6636111111","latitude":"45.7033333333","states_name_en":"Croatia,Italy,Montenegro","region_en":"Europe and North America"},{"name_en":"Wadden Sea","longitude":"8.5561111111","latitude":"53.5286111111","states_name_en":"Denmark,Germany,Netherlands","region_en":"Europe and North America"},{"name_en":"High Coast / Kvarken Archipelago","longitude":"21.3","latitude":"63.3","states_name_en":"Finland,Sweden","region_en":"Europe and North America"},{"name_en":"Pyrénées - Mont Perdu","longitude":"-5.0E-4","latitude":"42.68542","states_name_en":"France,Spain","region_en":"Europe and North America"},{"name_en":"Stone Circles of Senegambia","longitude":"-15.5225","latitude":"13.6911111111","states_name_en":"Gambia (the),Senegal","region_en":"Africa"},{"name_en":"Muskauer Park / Park Mużakowski","longitude":"14.72644444","latitude":"51.57930556","states_name_en":"Germany,Poland","region_en":"Europe and North America"},{"name_en":"Frontiers of the Roman Empire","longitude":"-2.601","latitude":"54.9926111111","states_name_en":"Germany,United Kingdom of Great Britain and Northern Ireland","region_en":"Europe and North America"},{"name_en":"Historic Centre of Rome, the Properties of the Holy See in that City Enjoying Extraterritorial Rights and San Paolo Fuori le Mura","longitude":"12.49230556","latitude":"41.89022222","states_name_en":"Holy See,Italy","region_en":"Europe and North America"},{"name_en":"Caves of Aggtelek Karst and Slovak Karst","longitude":"20.48687","latitude":"48.47573","states_name_en":"Hungary,Slovakia","region_en":"Europe and North America"},{"name_en":"Monte San Giorgio","longitude":"8.9138888889","latitude":"45.8888888889","states_name_en":"Italy,Switzerland","region_en":"Europe and North America"},{"name_en":"Rhaetian Railway in the Albula / Bernina Landscapes","longitude":"9.8463888889","latitude":"46.4983333333","states_name_en":"Italy,Switzerland","region_en":"Europe and North America"},{"name_en":"Western Tien-Shan","longitude":"0.0","latitude":"0.0","states_name_en":"Kazakhstan,Kyrgyzstan,Uzbekistan","region_en":"Asia and the Pacific"},{"name_en":"Maloti-Drakensberg Park","longitude":"29.1230555556","latitude":"-29.7652777778","states_name_en":"Lesotho,South Africa","region_en":"Africa"},{"name_en":"Curonian Spit","longitude":"20.96239","latitude":"55.27458","states_name_en":"Lithuania,Russian Federation","region_en":"Europe and North America"},{"name_en":"Wooden <em>Tserkvas</em> of the Carpathian Region in Poland and Ukraine","longitude":"21.0322222222","latitude":"49.5338888889","states_name_en":"Poland,Ukraine","region_en":"Europe and North America"},{"name_en":"Prehistoric Rock Art Sites in the Côa Valley and Siega Verde","longitude":"-6.6611111111","latitude":"40.6975","states_name_en":"Portugal,Spain","region_en":"Europe and North America"},{"name_en":"Uvs Nuur Basin","longitude":"92.71972222","latitude":"50.275","states_name_en":"Russian Federation,Mongolia","region_en":"Europe and North America,Asia and the Pacific"},{"name_en":"Landscapes of Dauria","longitude":"115.4254444444","latitude":"49.9302222222","states_name_en":"Russian Federation,Mongolia","region_en":"Europe and North America,Asia and the Pacific"},{"name_en":"Heritage of Mercury. Almadén and Idrija","longitude":"-4.8388888889","latitude":"38.7752777778","states_name_en":"Slovenia,Spain","region_en":"Europe and North America"},{"name_en":"Mosi-oa-Tunya / Victoria Falls","longitude":"25.85539","latitude":"-17.92453","states_name_en":"Zambia,Zimbabwe","region_en":"Africa"}]